{"type": "FeatureCollection", "features": [{"type": "Feature", "properties": {"GEOID": "36081026501", "nearest_facility_id": "6448", "sport_type": "soccer", "window_name": "weekday_evening", "option": 3, "segment": 0, "transport_mode": "TransportMode.WALK", "departure_time": "2026-09-01T17:14:57", "distance": 192.494, "travel_time": 197.0, "wait_time": 0.0, "feed": null, "agency_id": null, "route_id": null, "start_stop_id": null, "end_stop_id": null}, "geometry": {"type": "LineString", "coordinates": [[-73.892095, 40.745168], [-73.892378, 40.746669], [-73.892365, 40.746671], [-73.892309, 40.746676], [-73.892255, 40.746682], [-73.892242, 40.746683], [-73.89177, 40.746735], [-73.891738, 40.746738], [-73.891564, 40.746756], [-73.891543, 40.746747], [-73.891402, 40.746685], [-73.891335, 40.746656], [-73.891338, 40.746644]]}}, {"type": "Feature", "properties": {"GEOID": "36081026501", "nearest_facility_id": "6448", "sport_type": "soccer", "window_name": "weekday_evening", "option": 3, "segment": 1, "transport_mode": "TransportMode.SUBWAY", "departure_time": "2026-09-01T17:12:30", "distance": 5016.666207850902, "travel_time": 420.0, "wait_time": 408.0, "feed": "subway", "agency_id": "MTA NYCT", "route_id": "F", "start_stop_id": "G14S", "end_stop_id": "F09S"}, "geometry": {"type": "LineString", "coordinates": [[-73.891338, 40.746644], [-73.898453, 40.749669], [-73.906006, 40.752885], [-73.906141, 40.752938], [-73.906278, 40.752988], [-73.906417, 40.753033], [-73.906558, 40.753074], [-73.906702, 40.753109], [-73.906847, 40.75314], [-73.906995, 40.753167], [-73.907145, 40.753188], [-73.907298, 40.753205], [-73.907452, 40.753218], [-73.907609, 40.753225], [-73.907767, 40.753228], [-73.907928, 40.753226], [-73.908092, 40.75322], [-73.908257, 40.753208], [-73.909852, 40.753041], [-73.909958, 40.753033], [-73.910066, 40.753026], [-73.910175, 40.75302], [-73.910285, 40.753017], [-73.910395, 40.753014], [-73.910506, 40.753014], [-73.910618, 40.753015], [-73.91073, 40.753017], [-73.910844, 40.753022], [-73.910957, 40.753027], [-73.911072, 40.753035], [-73.911187, 40.753044], [-73.911304, 40.753054], [-73.91142, 40.753066], [-73.911537, 40.753079], [-73.915309, 40.753719], [-73.915542, 40.753755], [-73.915776, 40.753786], [-73.916009, 40.753811], [-73.916241, 40.75383], [-73.916472, 40.753843], [-73.916702, 40.75385], [-73.916932, 40.753852], [-73.91716, 40.753847], [-73.917388, 40.753837], [-73.917614, 40.753821], [-73.91784, 40.753799], [-73.918064, 40.753771], [-73.918288, 40.753737], [-73.918511, 40.753697], [-73.918734, 40.753651], [-73.924968, 40.752285], [-73.92507, 40.752262], [-73.925171, 40.752239], [-73.925273, 40.752217], [-73.925376, 40.752197], [-73.92548, 40.752179], [-73.925585, 40.752162], [-73.92569, 40.752146], [-73.925796, 40.752132], [-73.925903, 40.752119], [-73.926011, 40.752108], [-73.92612, 40.752098], [-73.926229, 40.75209], [-73.926339, 40.752083], [-73.92645, 40.752078], [-73.926563, 40.752074], [-73.928781, 40.752039], [-73.931627, 40.75199], [-73.931908, 40.751979], [-73.932184, 40.751957], [-73.932452, 40.751924], [-73.932713, 40.75188], [-73.932966, 40.751824], [-73.933212, 40.751758], [-73.933451, 40.75168], [-73.933682, 40.751591], [-73.933905, 40.751491], [-73.934122, 40.75138], [-73.934331, 40.751258], [-73.934532, 40.751125], [-73.934726, 40.750981], [-73.934913, 40.750826], [-73.935094, 40.75066], [-73.936347, 40.749495], [-73.936394, 40.749451], [-73.936442, 40.749408], [-73.936492, 40.749367], [-73.936544, 40.749327], [-73.936599, 40.749288], [-73.936655, 40.749251], [-73.936712, 40.749215], [-73.936772, 40.74918], [-73.936834, 40.749146], [-73.936897, 40.749114], [-73.936963, 40.749083], [-73.93703, 40.749054], [-73.937099, 40.749025], [-73.93717, 40.748999], [-73.937243, 40.748973], [-73.93978, 40.748061], [-73.941563, 40.747421], [-73.941678, 40.747385], [-73.941794, 40.747353], [-73.941913, 40.747326], [-73.942033, 40.747303], [-73.942155, 40.747285], [-73.942279, 40.747272], [-73.942405, 40.747263], [-73.942533, 40.747258], [-73.942663, 40.747259], [-73.942794, 40.747264], [-73.942927, 40.747273], [-73.943063, 40.747287], [-73.943199, 40.747306], [-73.943338, 40.747329], [-73.943479, 40.747357], [-73.946, 40.747846]]}}, {"type": "Feature", "properties": {"GEOID": "36081026501", "nearest_facility_id": "6448", "sport_type": "soccer", "window_name": "weekday_evening", "option": 3, "segment": 2, "transport_mode": "TransportMode.WALK", "departure_time": "2026-09-01T17:25:30", "distance": 391.195, "travel_time": 397.0, "wait_time": 0.0, "feed": null, "agency_id": null, "route_id": null, "start_stop_id": null, "end_stop_id": null}, "geometry": {"type": "LineString", "coordinates": [[-73.946, 40.747846], [-73.945999, 40.747855], [-73.946906, 40.748027], [-73.947176, 40.748078], [-73.947244, 40.748091], [-73.947361, 40.748113], [-73.947395, 40.74801], [-73.947485, 40.748026], [-73.947518, 40.748032], [-73.947538, 40.747968], [-73.947565, 40.747886], [-73.94759, 40.747809], [-73.947707, 40.747453], [-73.947713, 40.747434], [-73.947728, 40.747392], [-73.94879, 40.747602], [-73.948806, 40.747544], [-73.949716, 40.747712]]}}, {"type": "Feature", "properties": {"GEOID": "36081026700", "nearest_facility_id": "6448", "sport_type": "soccer", "window_name": "weekday_evening", "option": 4, "segment": 0, "transport_mode": "TransportMode.WALK", "departure_time": "2026-09-01T17:14:57", "distance": 380.332, "travel_time": 389.0, "wait_time": 0.0, "feed": null, "agency_id": null, "route_id": null, "start_stop_id": null, "end_stop_id": null}, "geometry": {"type": "LineString", "coordinates": [[-73.887405, 40.745086], [-73.888256, 40.74545], [-73.888267, 40.745454], [-73.888299, 40.745464], [-73.888362, 40.745496], [-73.888412, 40.745521], [-73.888462, 40.745527], [-73.889264, 40.745869], [-73.889305, 40.745894], [-73.889357, 40.74591], [-73.889441, 40.745935], [-73.889427, 40.745827], [-73.88989, 40.746027], [-73.890181, 40.746153], [-73.890239, 40.746178], [-73.890369, 40.746234], [-73.890495, 40.746289], [-73.890797, 40.746421], [-73.890866, 40.746451], [-73.890938, 40.746482], [-73.891086, 40.746547], [-73.891195, 40.746595], [-73.891335, 40.746656], [-73.891338, 40.746644]]}}, {"type": "Feature", "properties": {"GEOID": "36081026700", "nearest_facility_id": "6448", "sport_type": "soccer", "window_name": "weekday_evening", "option": 4, "segment": 1, "transport_mode": "TransportMode.SUBWAY", "departure_time": "2026-09-01T17:19:30", "distance": 5016.666207850902, "travel_time": 420.0, "wait_time": 72.0, "feed": "subway", "agency_id": "MTA NYCT", "route_id": "E", "start_stop_id": "G14S", "end_stop_id": "F09S"}, "geometry": {"type": "LineString", "coordinates": [[-73.891338, 40.746644], [-73.898453, 40.749669], [-73.906006, 40.752885], [-73.906141, 40.752938], [-73.906278, 40.752988], [-73.906417, 40.753033], [-73.906558, 40.753074], [-73.906702, 40.753109], [-73.906847, 40.75314], [-73.906995, 40.753167], [-73.907145, 40.753188], [-73.907298, 40.753205], [-73.907452, 40.753218], [-73.907609, 40.753225], [-73.907767, 40.753228], [-73.907928, 40.753226], [-73.908092, 40.75322], [-73.908257, 40.753208], [-73.909852, 40.753041], [-73.909958, 40.753033], [-73.910066, 40.753026], [-73.910175, 40.75302], [-73.910285, 40.753017], [-73.910395, 40.753014], [-73.910506, 40.753014], [-73.910618, 40.753015], [-73.91073, 40.753017], [-73.910844, 40.753022], [-73.910957, 40.753027], [-73.911072, 40.753035], [-73.911187, 40.753044], [-73.911304, 40.753054], [-73.91142, 40.753066], [-73.911537, 40.753079], [-73.915309, 40.753719], [-73.915542, 40.753755], [-73.915776, 40.753786], [-73.916009, 40.753811], [-73.916241, 40.75383], [-73.916472, 40.753843], [-73.916702, 40.75385], [-73.916932, 40.753852], [-73.91716, 40.753847], [-73.917388, 40.753837], [-73.917614, 40.753821], [-73.91784, 40.753799], [-73.918064, 40.753771], [-73.918288, 40.753737], [-73.918511, 40.753697], [-73.918734, 40.753651], [-73.924968, 40.752285], [-73.92507, 40.752262], [-73.925171, 40.752239], [-73.925273, 40.752217], [-73.925376, 40.752197], [-73.92548, 40.752179], [-73.925585, 40.752162], [-73.92569, 40.752146], [-73.925796, 40.752132], [-73.925903, 40.752119], [-73.926011, 40.752108], [-73.92612, 40.752098], [-73.926229, 40.75209], [-73.926339, 40.752083], [-73.92645, 40.752078], [-73.926563, 40.752074], [-73.928781, 40.752039], [-73.931627, 40.75199], [-73.931908, 40.751979], [-73.932184, 40.751957], [-73.932452, 40.751924], [-73.932713, 40.75188], [-73.932966, 40.751824], [-73.933212, 40.751758], [-73.933451, 40.75168], [-73.933682, 40.751591], [-73.933905, 40.751491], [-73.934122, 40.75138], [-73.934331, 40.751258], [-73.934532, 40.751125], [-73.934726, 40.750981], [-73.934913, 40.750826], [-73.935094, 40.75066], [-73.936347, 40.749495], [-73.936394, 40.749451], [-73.936442, 40.749408], [-73.936492, 40.749367], [-73.936544, 40.749327], [-73.936599, 40.749288], [-73.936655, 40.749251], [-73.936712, 40.749215], [-73.936772, 40.74918], [-73.936834, 40.749146], [-73.936897, 40.749114], [-73.936963, 40.749083], [-73.93703, 40.749054], [-73.937099, 40.749025], [-73.93717, 40.748999], [-73.937243, 40.748973], [-73.93978, 40.748061], [-73.941563, 40.747421], [-73.941678, 40.747385], [-73.941794, 40.747353], [-73.941913, 40.747326], [-73.942033, 40.747303], [-73.942155, 40.747285], [-73.942279, 40.747272], [-73.942405, 40.747263], [-73.942533, 40.747258], [-73.942663, 40.747259], [-73.942794, 40.747264], [-73.942927, 40.747273], [-73.943063, 40.747287], [-73.943199, 40.747306], [-73.943338, 40.747329], [-73.943479, 40.747357], [-73.946, 40.747846]]}}, {"type": "Feature", "properties": {"GEOID": "36081026700", "nearest_facility_id": "6448", "sport_type": "soccer", "window_name": "weekday_evening", "option": 4, "segment": 2, "transport_mode": "TransportMode.WALK", "departure_time": "2026-09-01T17:25:30", "distance": 391.195, "travel_time": 397.0, "wait_time": 0.0, "feed": null, "agency_id": null, "route_id": null, "start_stop_id": null, "end_stop_id": null}, "geometry": {"type": "LineString", "coordinates": [[-73.946, 40.747846], [-73.945999, 40.747855], [-73.946906, 40.748027], [-73.947176, 40.748078], [-73.947244, 40.748091], [-73.947361, 40.748113], [-73.947395, 40.74801], [-73.947485, 40.748026], [-73.947518, 40.748032], [-73.947538, 40.747968], [-73.947565, 40.747886], [-73.94759, 40.747809], [-73.947707, 40.747453], [-73.947713, 40.747434], [-73.947728, 40.747392], [-73.94879, 40.747602], [-73.948806, 40.747544], [-73.949716, 40.747712]]}}, {"type": "Feature", "properties": {"GEOID": "36081026901", "nearest_facility_id": "6326", "sport_type": "soccer", "window_name": "weekday_evening", "option": 2, "segment": 0, "transport_mode": "TransportMode.WALK", "departure_time": "2026-09-01T17:14:57", "distance": 198.629, "travel_time": 203.0, "wait_time": 0.0, "feed": null, "agency_id": null, "route_id": null, "start_stop_id": null, "end_stop_id": null}, "geometry": {"type": "LineString", "coordinates": [[-73.88039, 40.745823], [-73.882659, 40.746831], [-73.882944, 40.746958], [-73.882931, 40.746977], [-73.88291, 40.747005], [-73.882989, 40.74704], [-73.882823, 40.747291], [-73.8829, 40.74734], [-73.882925, 40.747355], [-73.882986, 40.747667], [-73.882999, 40.747734], [-73.883073, 40.747726], [-73.883566, 40.747671], [-73.883697, 40.747656], [-73.883697, 40.747659]]}}, {"type": "Feature", "properties": {"GEOID": "36081026901", "nearest_facility_id": "6326", "sport_type": "soccer", "window_name": "weekday_evening", "option": 2, "segment": 1, "transport_mode": "TransportMode.SUBWAY", "departure_time": "2026-09-01T17:09:30", "distance": 2447.6676891579796, "travel_time": 360.0, "wait_time": 316.0, "feed": "subway", "agency_id": "MTA NYCT", "route_id": "7", "start_stop_id": "709N", "end_stop_id": "705N"}, "geometry": {"type": "LineString", "coordinates": [[-73.883697, 40.747659], [-73.876613, 40.748408], [-73.869527, 40.749145], [-73.8627, 40.749865], [-73.861615, 40.749981], [-73.861521, 40.749992], [-73.861428, 40.750004], [-73.861338, 40.750017], [-73.861249, 40.75003], [-73.861162, 40.750045], [-73.861078, 40.750059], [-73.860995, 40.750075], [-73.860914, 40.750091], [-73.860835, 40.750108], [-73.860758, 40.750126], [-73.860682, 40.750144], [-73.860609, 40.750163], [-73.860538, 40.750183], [-73.860468, 40.750204], [-73.860401, 40.750225], [-73.855334, 40.75173]]}}, {"type": "Feature", "properties": {"GEOID": "36081026901", "nearest_facility_id": "6326", "sport_type": "soccer", "window_name": "weekday_evening", "option": 2, "segment": 2, "transport_mode": "TransportMode.WALK", "departure_time": "2026-09-01T17:29:00", "distance": 657.641, "travel_time": 671.0, "wait_time": 0.0, "feed": null, "agency_id": null, "route_id": null, "start_stop_id": null, "end_stop_id": null}, "geometry": {"type": "LineString", "coordinates": [[-73.855334, 40.75173], [-73.855333, 40.751727], [-73.854621, 40.751937], [-73.854661, 40.75201], [-73.854671, 40.752029], [-73.855014, 40.752708], [-73.855023, 40.752725], [-73.855041, 40.752764], [-73.854977, 40.752783], [-73.855008, 40.752844], [-73.855366, 40.753529], [-73.855396, 40.753582], [-73.855424, 40.753635], [-73.855371, 40.75365], [-73.855357, 40.753653], [-73.855696, 40.754357], [-73.855703, 40.75438], [-73.855723, 40.754433], [-73.855565, 40.754471], [-73.855414, 40.754508], [-73.855282, 40.754544], [-73.854781, 40.754694], [-73.854816, 40.754762], [-73.854765, 40.754777], [-73.854739, 40.754785], [-73.854835, 40.75497], [-73.854923, 40.755137], [-73.855028, 40.755338], [-73.855586, 40.756422]]}}, {"type": "Feature", "properties": {"GEOID": "36081026902", "nearest_facility_id": "6326", "sport_type": "soccer", "window_name": "weekday_evening", "option": 1, "segment": 0, "transport_mode": "TransportMode.WALK", "departure_time": "2026-09-01T17:14:57", "distance": 432.923, "travel_time": 438.0, "wait_time": 0.0, "feed": null, "agency_id": null, "route_id": null, "start_stop_id": null, "end_stop_id": null}, "geometry": {"type": "LineString", "coordinates": [[-73.882138, 40.744266], [-73.882953, 40.744626], [-73.883015, 40.744653], [-73.883086, 40.744685], [-73.883134, 40.744706], [-73.883585, 40.744906], [-73.884172, 40.745166], [-73.884256, 40.745204], [-73.883888, 40.745745], [-73.883841, 40.745809], [-73.8838, 40.745869], [-73.88368, 40.746064], [-73.883689, 40.746197], [-73.883697, 40.746251], [-73.883746, 40.74657], [-73.883865, 40.747232], [-73.883925, 40.74757], [-73.883936, 40.74763], [-73.883856, 40.747639], [-73.883697, 40.747656], [-73.883697, 40.747659]]}}, {"type": "Feature", "properties": {"GEOID": "36081026902", "nearest_facility_id": "6326", "sport_type": "soccer", "window_name": "weekday_evening", "option": 1, "segment": 1, "transport_mode": "TransportMode.SUBWAY", "departure_time": "2026-09-01T17:09:30", "distance": 2447.6676891579796, "travel_time": 360.0, "wait_time": 81.0, "feed": "subway", "agency_id": "MTA NYCT", "route_id": "7", "start_stop_id": "709N", "end_stop_id": "705N"}, "geometry": {"type": "LineString", "coordinates": [[-73.883697, 40.747659], [-73.876613, 40.748408], [-73.869527, 40.749145], [-73.8627, 40.749865], [-73.861615, 40.749981], [-73.861521, 40.749992], [-73.861428, 40.750004], [-73.861338, 40.750017], [-73.861249, 40.75003], [-73.861162, 40.750045], [-73.861078, 40.750059], [-73.860995, 40.750075], [-73.860914, 40.750091], [-73.860835, 40.750108], [-73.860758, 40.750126], [-73.860682, 40.750144], [-73.860609, 40.750163], [-73.860538, 40.750183], [-73.860468, 40.750204], [-73.860401, 40.750225], [-73.855334, 40.75173]]}}, {"type": "Feature", "properties": {"GEOID": "36081026902", "nearest_facility_id": "6326", "sport_type": "soccer", "window_name": "weekday_evening", "option": 1, "segment": 2, "transport_mode": "TransportMode.WALK", "departure_time": "2026-09-01T17:29:00", "distance": 657.641, "travel_time": 671.0, "wait_time": 0.0, "feed": null, "agency_id": null, "route_id": null, "start_stop_id": null, "end_stop_id": null}, "geometry": {"type": "LineString", "coordinates": [[-73.855334, 40.75173], [-73.855333, 40.751727], [-73.854621, 40.751937], [-73.854661, 40.75201], [-73.854671, 40.752029], [-73.855014, 40.752708], [-73.855023, 40.752725], [-73.855041, 40.752764], [-73.854977, 40.752783], [-73.855008, 40.752844], [-73.855366, 40.753529], [-73.855396, 40.753582], [-73.855424, 40.753635], [-73.855371, 40.75365], [-73.855357, 40.753653], [-73.855696, 40.754357], [-73.855703, 40.75438], [-73.855723, 40.754433], [-73.855565, 40.754471], [-73.855414, 40.754508], [-73.855282, 40.754544], [-73.854781, 40.754694], [-73.854816, 40.754762], [-73.854765, 40.754777], [-73.854739, 40.754785], [-73.854835, 40.75497], [-73.854923, 40.755137], [-73.855028, 40.755338], [-73.855586, 40.756422]]}}, {"type": "Feature", "properties": {"GEOID": "36081027101", "nearest_facility_id": "6448", "sport_type": "soccer", "window_name": "weekday_evening", "option": 5, "segment": 0, "transport_mode": "TransportMode.WALK", "departure_time": "2026-09-01T17:08:28", "distance": 281.833, "travel_time": 284.0, "wait_time": 0.0, "feed": null, "agency_id": null, "route_id": null, "start_stop_id": null, "end_stop_id": null}, "geometry": {"type": "LineString", "coordinates": [[-73.879326, 40.743791], [-73.879765, 40.743983], [-73.880424, 40.744284], [-73.880459, 40.744234], [-73.880488, 40.744196], [-73.881803, 40.742479], [-73.881867, 40.742381], [-73.882013, 40.742466], [-73.882017, 40.742454]]}}, {"type": "Feature", "properties": {"GEOID": "36081027101", "nearest_facility_id": "6448", "sport_type": "soccer", "window_name": "weekday_evening", "option": 5, "segment": 1, "transport_mode": "TransportMode.SUBWAY", "departure_time": "2026-09-01T17:17:00", "distance": 914.7871570663206, "travel_time": 120.0, "wait_time": 156.0, "feed": "subway", "agency_id": "MTA NYCT", "route_id": "M", "start_stop_id": "G13S", "end_stop_id": "G14S"}, "geometry": {"type": "LineString", "coordinates": [[-73.882017, 40.742454], [-73.882064, 40.742482], [-73.882114, 40.74251], [-73.882165, 40.742539], [-73.882218, 40.742569], [-73.882273, 40.742599], [-73.88233, 40.74263], [-73.882388, 40.742661], [-73.882448, 40.742693], [-73.88251, 40.742726], [-73.882574, 40.742759], [-73.882639, 40.742792], [-73.882706, 40.742827], [-73.882775, 40.742862], [-73.882846, 40.742897], [-73.882917, 40.742933], [-73.884523, 40.743718], [-73.884561, 40.743737], [-73.8846, 40.743756], [-73.884639, 40.743775], [-73.884679, 40.743794], [-73.884719, 40.743813], [-73.88476, 40.743832], [-73.884801, 40.743851], [-73.884843, 40.743871], [-73.884885, 40.74389], [-73.884928, 40.743909], [-73.884971, 40.743928], [-73.885015, 40.743948], [-73.885059, 40.743967], [-73.885104, 40.743987], [-73.885149, 40.744006], [-73.891338, 40.746644]]}}, {"type": "Feature", "properties": {"GEOID": "36081027101", "nearest_facility_id": "6448", "sport_type": "soccer", "window_name": "weekday_evening", "option": 5, "segment": 2, "transport_mode": "TransportMode.SUBWAY", "departure_time": "2026-09-01T17:22:30", "distance": 5016.666207850902, "travel_time": 420.0, "wait_time": 210.0, "feed": "subway", "agency_id": "MTA NYCT", "route_id": "F", "start_stop_id": "G14S", "end_stop_id": "F09S"}, "geometry": {"type": "LineString", "coordinates": [[-73.891338, 40.746644], [-73.898453, 40.749669], [-73.906006, 40.752885], [-73.906141, 40.752938], [-73.906278, 40.752988], [-73.906417, 40.753033], [-73.906558, 40.753074], [-73.906702, 40.753109], [-73.906847, 40.75314], [-73.906995, 40.753167], [-73.907145, 40.753188], [-73.907298, 40.753205], [-73.907452, 40.753218], [-73.907609, 40.753225], [-73.907767, 40.753228], [-73.907928, 40.753226], [-73.908092, 40.75322], [-73.908257, 40.753208], [-73.909852, 40.753041], [-73.909958, 40.753033], [-73.910066, 40.753026], [-73.910175, 40.75302], [-73.910285, 40.753017], [-73.910395, 40.753014], [-73.910506, 40.753014], [-73.910618, 40.753015], [-73.91073, 40.753017], [-73.910844, 40.753022], [-73.910957, 40.753027], [-73.911072, 40.753035], [-73.911187, 40.753044], [-73.911304, 40.753054], [-73.91142, 40.753066], [-73.911537, 40.753079], [-73.915309, 40.753719], [-73.915542, 40.753755], [-73.915776, 40.753786], [-73.916009, 40.753811], [-73.916241, 40.75383], [-73.916472, 40.753843], [-73.916702, 40.75385], [-73.916932, 40.753852], [-73.91716, 40.753847], [-73.917388, 40.753837], [-73.917614, 40.753821], [-73.91784, 40.753799], [-73.918064, 40.753771], [-73.918288, 40.753737], [-73.918511, 40.753697], [-73.918734, 40.753651], [-73.924968, 40.752285], [-73.92507, 40.752262], [-73.925171, 40.752239], [-73.925273, 40.752217], [-73.925376, 40.752197], [-73.92548, 40.752179], [-73.925585, 40.752162], [-73.92569, 40.752146], [-73.925796, 40.752132], [-73.925903, 40.752119], [-73.926011, 40.752108], [-73.92612, 40.752098], [-73.926229, 40.75209], [-73.926339, 40.752083], [-73.92645, 40.752078], [-73.926563, 40.752074], [-73.928781, 40.752039], [-73.931627, 40.75199], [-73.931908, 40.751979], [-73.932184, 40.751957], [-73.932452, 40.751924], [-73.932713, 40.75188], [-73.932966, 40.751824], [-73.933212, 40.751758], [-73.933451, 40.75168], [-73.933682, 40.751591], [-73.933905, 40.751491], [-73.934122, 40.75138], [-73.934331, 40.751258], [-73.934532, 40.751125], [-73.934726, 40.750981], [-73.934913, 40.750826], [-73.935094, 40.75066], [-73.936347, 40.749495], [-73.936394, 40.749451], [-73.936442, 40.749408], [-73.936492, 40.749367], [-73.936544, 40.749327], [-73.936599, 40.749288], [-73.936655, 40.749251], [-73.936712, 40.749215], [-73.936772, 40.74918], [-73.936834, 40.749146], [-73.936897, 40.749114], [-73.936963, 40.749083], [-73.93703, 40.749054], [-73.937099, 40.749025], [-73.93717, 40.748999], [-73.937243, 40.748973], [-73.93978, 40.748061], [-73.941563, 40.747421], [-73.941678, 40.747385], [-73.941794, 40.747353], [-73.941913, 40.747326], [-73.942033, 40.747303], [-73.942155, 40.747285], [-73.942279, 40.747272], [-73.942405, 40.747263], [-73.942533, 40.747258], [-73.942663, 40.747259], [-73.942794, 40.747264], [-73.942927, 40.747273], [-73.943063, 40.747287], [-73.943199, 40.747306], [-73.943338, 40.747329], [-73.943479, 40.747357], [-73.946, 40.747846]]}}, {"type": "Feature", "properties": {"GEOID": "36081027101", "nearest_facility_id": "6448", "sport_type": "soccer", "window_name": "weekday_evening", "option": 5, "segment": 3, "transport_mode": "TransportMode.WALK", "departure_time": "2026-09-01T17:30:30", "distance": 391.195, "travel_time": 397.0, "wait_time": 0.0, "feed": null, "agency_id": null, "route_id": null, "start_stop_id": null, "end_stop_id": null}, "geometry": {"type": "LineString", "coordinates": [[-73.946, 40.747846], [-73.945999, 40.747855], [-73.946906, 40.748027], [-73.947176, 40.748078], [-73.947244, 40.748091], [-73.947361, 40.748113], [-73.947395, 40.74801], [-73.947485, 40.748026], [-73.947518, 40.748032], [-73.947538, 40.747968], [-73.947565, 40.747886], [-73.94759, 40.747809], [-73.947707, 40.747453], [-73.947713, 40.747434], [-73.947728, 40.747392], [-73.94879, 40.747602], [-73.948806, 40.747544], [-73.949716, 40.747712]]}}, {"type": "Feature", "properties": {"GEOID": "36081027102", "nearest_facility_id": "6016", "sport_type": "soccer", "window_name": "weekday_evening", "option": 0, "segment": 0, "transport_mode": "TransportMode.WALK", "departure_time": null, "distance": 1225.958, "travel_time": 1247.0, "wait_time": 0.0, "feed": null, "agency_id": null, "route_id": null, "start_stop_id": null, "end_stop_id": null}, "geometry": {"type": "LineString", "coordinates": [[-73.878367, 40.747339], [-73.878381, 40.747321], [-73.878512, 40.747149], [-73.878535, 40.747119], [-73.878534, 40.747106], [-73.878525, 40.747096], [-73.878386, 40.747036], [-73.878058, 40.746888], [-73.87792, 40.746828], [-73.877873, 40.746811], [-73.877848, 40.746809], [-73.877838, 40.74681], [-73.877687, 40.747008], [-73.877672, 40.747028], [-73.877618, 40.747005], [-73.877266, 40.746851], [-73.877257, 40.746868], [-73.87724, 40.746901], [-73.877214, 40.746949], [-73.877205, 40.74696], [-73.876904, 40.747503], [-73.876898, 40.747518], [-73.876871, 40.747558], [-73.876843, 40.747601], [-73.876838, 40.74761], [-73.876527, 40.748135], [-73.876521, 40.748146], [-73.876496, 40.74819], [-73.876474, 40.748229], [-73.876468, 40.74824], [-73.876385, 40.748365], [-73.876288, 40.748373], [-73.876252, 40.748439], [-73.87619, 40.74855], [-73.875762, 40.749329], [-73.875719, 40.749408], [-73.875471, 40.749828], [-73.875429, 40.749882], [-73.875376, 40.749931], [-73.874975, 40.750076], [-73.874904, 40.750103], [-73.874833, 40.750131], [-73.874521, 40.750243], [-73.874086, 40.750401], [-73.874015, 40.750426], [-73.874024, 40.750489], [-73.874073, 40.750757], [-73.874087, 40.750833], [-73.874101, 40.750908], [-73.874443, 40.752794], [-73.874455, 40.752859], [-73.874471, 40.752946], [-73.874523, 40.753232], [-73.874615, 40.753744], [-73.874623, 40.753786], [-73.874667, 40.75403], [-73.874789, 40.754715], [-73.874802, 40.75478], [-73.87481, 40.754833], [-73.874826, 40.75492], [-73.874779, 40.754923], [-73.874756, 40.754925], [-73.875042, 40.756531]]}}, {"type": "Feature", "properties": {"GEOID": "36081045700", "nearest_facility_id": "6457", "sport_type": "soccer", "window_name": "weekday_evening", "option": 8, "segment": 0, "transport_mode": "TransportMode.WALK", "departure_time": "2026-09-01T17:08:28", "distance": 333.581, "travel_time": 336.0, "wait_time": 0.0, "feed": null, "agency_id": null, "route_id": null, "start_stop_id": null, "end_stop_id": null}, "geometry": {"type": "LineString", "coordinates": [[-73.868282, 40.737882], [-73.870355, 40.737415], [-73.870348, 40.737396], [-73.870333, 40.737364], [-73.87031, 40.73732], [-73.870308, 40.737303], [-73.870038, 40.736626], [-73.870025, 40.736603], [-73.870005, 40.736543], [-73.869993, 40.736499], [-73.869994, 40.736474], [-73.870015, 40.736467], [-73.870071, 40.736455], [-73.86976, 40.735578], [-73.869794, 40.735569], [-73.869822, 40.735561], [-73.870218, 40.735441], [-73.870214, 40.735415]]}}, {"type": "Feature", "properties": {"GEOID": "36081045700", "nearest_facility_id": "6457", "sport_type": "soccer", "window_name": "weekday_evening", "option": 8, "segment": 1, "transport_mode": "TransportMode.BUS", "departure_time": "2026-09-01T17:16:33", "distance": 2242.0841583915853, "travel_time": 552.0, "wait_time": 77.0, "feed": "bus_brooklyn", "agency_id": "MTA NYCT", "route_id": "Q14", "start_stop_id": "552994", "end_stop_id": "551329"}, "geometry": {"type": "LineString", "coordinates": [[-73.870203, 40.735352], [-73.870339, 40.735312], [-73.872269, 40.734732], [-73.873099, 40.734482], [-73.873309, 40.734422], [-73.873559, 40.734342], [-73.873839, 40.734262], [-73.873999, 40.734162], [-73.873889, 40.734062], [-73.873459, 40.733592], [-73.873299, 40.733502], [-73.873049, 40.733402], [-73.872829, 40.733322], [-73.872629, 40.733292], [-73.871919, 40.733232], [-73.871106, 40.733195], [-73.871104, 40.733195], [-73.871019, 40.733192], [-73.870659, 40.733152], [-73.870849, 40.732802], [-73.870999, 40.732532], [-73.871249, 40.732082], [-73.871379, 40.731852], [-73.871459, 40.731682], [-73.871529, 40.731522], [-73.871569, 40.731422], [-73.871649, 40.731132], [-73.871679, 40.730872], [-73.871679, 40.730432], [-73.871649, 40.730052], [-73.871619, 40.729822], [-73.871579, 40.729592], [-73.871539, 40.729402], [-73.871519, 40.729332], [-73.871619, 40.729102], [-73.872099, 40.728742], [-73.873155, 40.727964], [-73.873191, 40.727937], [-73.873239, 40.727902], [-73.873569, 40.727652], [-73.873819, 40.727492], [-73.874099, 40.727342], [-73.874709, 40.727082], [-73.874939, 40.726972], [-73.875423, 40.726751], [-73.875456, 40.726736], [-73.875509, 40.726712], [-73.876289, 40.726362], [-73.877569, 40.725762], [-73.877949, 40.725582], [-73.878379, 40.725392], [-73.879062, 40.725071], [-73.879092, 40.725057], [-73.879209, 40.725002], [-73.880029, 40.724622], [-73.880839, 40.724252], [-73.881639, 40.723872], [-73.882335, 40.723546], [-73.882367, 40.723531]]}}, {"type": "Feature", "properties": {"GEOID": "36081045700", "nearest_facility_id": "6457", "sport_type": "soccer", "window_name": "weekday_evening", "option": 8, "segment": 2, "transport_mode": "TransportMode.WALK", "departure_time": "2026-09-01T17:26:45", "distance": 583.25, "travel_time": 595.0, "wait_time": 0.0, "feed": null, "agency_id": null, "route_id": null, "start_stop_id": null, "end_stop_id": null}, "geometry": {"type": "LineString", "coordinates": [[-73.882388, 40.723611], [-73.882413, 40.72361], [-73.882368, 40.72355], [-73.882438, 40.723519], [-73.882508, 40.723487], [-73.882828, 40.723338], [-73.883237, 40.723148], [-73.883333, 40.723103], [-73.883864, 40.722856], [-73.883974, 40.722805], [-73.884044, 40.722773], [-73.884105, 40.722745], [-73.884497, 40.722566], [-73.884471, 40.722496], [-73.884466, 40.722482], [-73.884508, 40.722093], [-73.88451, 40.722069], [-73.884514, 40.721967], [-73.884519, 40.721823], [-73.884525, 40.7218], [-73.884592, 40.721319], [-73.884594, 40.721309], [-73.884612, 40.721229], [-73.884627, 40.721158], [-73.88463, 40.721146], [-73.884584, 40.721091], [-73.884489, 40.721045], [-73.884536, 40.720872], [-73.884668, 40.720387], [-73.884687, 40.720324], [-73.884714, 40.720259], [-73.884785, 40.720144], [-73.884788, 40.720133], [-73.884877, 40.719837], [-73.884788, 40.71982], [-73.884752, 40.719814]]}}, {"type": "Feature", "properties": {"GEOID": "36081045900", "nearest_facility_id": "6016", "sport_type": "soccer", "window_name": "weekday_evening", "option": 12, "segment": 0, "transport_mode": "TransportMode.WALK", "departure_time": "2026-09-01T17:05:14", "distance": 510.303, "travel_time": 519.0, "wait_time": 0.0, "feed": null, "agency_id": null, "route_id": null, "start_stop_id": null, "end_stop_id": null}, "geometry": {"type": "LineString", "coordinates": [[-73.871364, 40.740042], [-73.869299, 40.740512], [-73.869305, 40.740526], [-73.869315, 40.740555], [-73.869248, 40.74057], [-73.869175, 40.740586], [-73.867671, 40.740929], [-73.867663, 40.740973], [-73.867663, 40.74099], [-73.86767, 40.741605], [-73.867643, 40.74161], [-73.867567, 40.741623], [-73.867569, 40.741684], [-73.867547, 40.741749], [-73.867459, 40.741775], [-73.867432, 40.741782], [-73.867374, 40.741996], [-73.867367, 40.742022], [-73.867355, 40.742096], [-73.867342, 40.742172], [-73.867351, 40.742197], [-73.867362, 40.742221], [-73.867371, 40.742663], [-73.867412, 40.742662]]}}, {"type": "Feature", "properties": {"GEOID": "36081045900", "nearest_facility_id": "6016", "sport_type": "soccer", "window_name": "weekday_evening", "option": 12, "segment": 1, "transport_mode": "TransportMode.BUS", "departure_time": "2026-09-01T17:15:49", "distance": 1704.7912763505274, "travel_time": 851.0, "wait_time": 116.0, "feed": "bus_company", "agency_id": "MTABC", "route_id": "Q72", "start_stop_id": "551994", "end_stop_id": "552009"}, "geometry": {"type": "LineString", "coordinates": [[-73.867466, 40.742661], [-73.867466, 40.742662], [-73.867474, 40.743162], [-73.867485, 40.743341], [-73.867683, 40.744091], [-73.867827, 40.744672], [-73.867845, 40.744741], [-73.867873, 40.744837], [-73.867882, 40.744877], [-73.867898, 40.744942], [-73.868085, 40.745636], [-73.868117, 40.74577], [-73.868125, 40.745806], [-73.868252, 40.74634], [-73.868414, 40.746947], [-73.868435, 40.747062], [-73.868527, 40.747613], [-73.868575, 40.747793], [-73.868636, 40.747924], [-73.86893, 40.748377], [-73.869186, 40.748793], [-73.869394, 40.749139], [-73.869425, 40.749192], [-73.869457, 40.749241], [-73.869624, 40.749509], [-73.869643, 40.749539], [-73.869693, 40.749618], [-73.870057, 40.750251], [-73.870771, 40.751477], [-73.870838, 40.751571], [-73.870923, 40.751726], [-73.870945, 40.751765], [-73.871037, 40.751934], [-73.871777, 40.753346], [-73.872064, 40.753893], [-73.872127, 40.754007], [-73.872669, 40.75502], [-73.872706, 40.755098], [-73.872764, 40.755206], [-73.872784, 40.755243], [-73.873608, 40.756772], [-73.873673, 40.756873], [-73.873806, 40.757122]]}}, {"type": "Feature", "properties": {"GEOID": "36081045900", "nearest_facility_id": "6016", "sport_type": "soccer", "window_name": "weekday_evening", "option": 12, "segment": 2, "transport_mode": "TransportMode.WALK", "departure_time": "2026-09-01T17:31:00", "distance": 298.042, "travel_time": 302.0, "wait_time": 0.0, "feed": null, "agency_id": null, "route_id": null, "start_stop_id": null, "end_stop_id": null}, "geometry": {"type": "LineString", "coordinates": [[-73.873766, 40.757159], [-73.873742, 40.757182], [-73.873701, 40.757109], [-73.873805, 40.757083], [-73.873736, 40.756955], [-73.873714, 40.756912], [-73.873791, 40.756906], [-73.873831, 40.756902], [-73.874177, 40.756865], [-73.875081, 40.756768], [-73.875077, 40.75675], [-73.87506, 40.756653], [-73.875042, 40.756552], [-73.875042, 40.756531], [-73.874756, 40.754925]]}}, {"type": "Feature", "properties": {"GEOID": "36081046100", "nearest_facility_id": "6016", "sport_type": "soccer", "window_name": "weekday_evening", "option": 9, "segment": 0, "transport_mode": "TransportMode.WALK", "departure_time": "2026-09-01T17:19:14", "distance": 488.142, "travel_time": 496.0, "wait_time": 0.0, "feed": null, "agency_id": null, "route_id": null, "start_stop_id": null, "end_stop_id": null}, "geometry": {"type": "LineString", "coordinates": [[-73.871191, 40.741926], [-73.871067, 40.741614], [-73.869835, 40.741892], [-73.869989, 40.742279], [-73.86996, 40.742277], [-73.869907, 40.742275], [-73.869844, 40.742273], [-73.869828, 40.742275], [-73.8698, 40.742278], [-73.867678, 40.742029], [-73.867595, 40.74202], [-73.867588, 40.742046], [-73.86758, 40.742106], [-73.867476, 40.742101], [-73.867465, 40.742196], [-73.86738, 40.742198], [-73.867351, 40.742197], [-73.867362, 40.742221], [-73.867371, 40.742663], [-73.867412, 40.742662]]}}, {"type": "Feature", "properties": {"GEOID": "36081046100", "nearest_facility_id": "6016", "sport_type": "soccer", "window_name": "weekday_evening", "option": 9, "segment": 1, "transport_mode": "TransportMode.BUS", "departure_time": "2026-09-01T17:15:49", "distance": 1704.7912763505274, "travel_time": 851.0, "wait_time": 72.0, "feed": "bus_company", "agency_id": "MTABC", "route_id": "Q72", "start_stop_id": "551994", "end_stop_id": "552009"}, "geometry": {"type": "LineString", "coordinates": [[-73.867466, 40.742661], [-73.867466, 40.742662], [-73.867474, 40.743162], [-73.867485, 40.743341], [-73.867683, 40.744091], [-73.867827, 40.744672], [-73.867845, 40.744741], [-73.867873, 40.744837], [-73.867882, 40.744877], [-73.867898, 40.744942], [-73.868085, 40.745636], [-73.868117, 40.74577], [-73.868125, 40.745806], [-73.868252, 40.74634], [-73.868414, 40.746947], [-73.868435, 40.747062], [-73.868527, 40.747613], [-73.868575, 40.747793], [-73.868636, 40.747924], [-73.86893, 40.748377], [-73.869186, 40.748793], [-73.869394, 40.749139], [-73.869425, 40.749192], [-73.869457, 40.749241], [-73.869624, 40.749509], [-73.869643, 40.749539], [-73.869693, 40.749618], [-73.870057, 40.750251], [-73.870771, 40.751477], [-73.870838, 40.751571], [-73.870923, 40.751726], [-73.870945, 40.751765], [-73.871037, 40.751934], [-73.871777, 40.753346], [-73.872064, 40.753893], [-73.872127, 40.754007], [-73.872669, 40.75502], [-73.872706, 40.755098], [-73.872764, 40.755206], [-73.872784, 40.755243], [-73.873608, 40.756772], [-73.873673, 40.756873], [-73.873806, 40.757122]]}}, {"type": "Feature", "properties": {"GEOID": "36081046100", "nearest_facility_id": "6016", "sport_type": "soccer", "window_name": "weekday_evening", "option": 9, "segment": 2, "transport_mode": "TransportMode.WALK", "departure_time": "2026-09-01T17:31:00", "distance": 298.042, "travel_time": 302.0, "wait_time": 0.0, "feed": null, "agency_id": null, "route_id": null, "start_stop_id": null, "end_stop_id": null}, "geometry": {"type": "LineString", "coordinates": [[-73.873766, 40.757159], [-73.873742, 40.757182], [-73.873701, 40.757109], [-73.873805, 40.757083], [-73.873736, 40.756955], [-73.873714, 40.756912], [-73.873791, 40.756906], [-73.873831, 40.756902], [-73.874177, 40.756865], [-73.875081, 40.756768], [-73.875077, 40.75675], [-73.87506, 40.756653], [-73.875042, 40.756552], [-73.875042, 40.756531], [-73.874756, 40.754925]]}}, {"type": "Feature", "properties": {"GEOID": "36081046300", "nearest_facility_id": "6016", "sport_type": "soccer", "window_name": "weekday_evening", "option": 5, "segment": 0, "transport_mode": "TransportMode.WALK", "departure_time": "2026-09-01T17:09:40", "distance": 233.353, "travel_time": 237.0, "wait_time": 0.0, "feed": null, "agency_id": null, "route_id": null, "start_stop_id": null, "end_stop_id": null}, "geometry": {"type": "LineString", "coordinates": [[-73.870741, 40.744535], [-73.870669, 40.744213], [-73.870442, 40.744235], [-73.870138, 40.744311], [-73.86801, 40.744941], [-73.868136, 40.745438], [-73.868156, 40.745518], [-73.868161, 40.745532], [-73.868177, 40.745575], [-73.868089, 40.745602], [-73.868115, 40.745673], [-73.86804, 40.745694], [-73.868021, 40.745698], [-73.868045, 40.7458], [-73.867983, 40.745825]]}}, {"type": "Feature", "properties": {"GEOID": "36081046300", "nearest_facility_id": "6016", "sport_type": "soccer", "window_name": "weekday_evening", "option": 5, "segment": 1, "transport_mode": "TransportMode.BUS", "departure_time": "2026-09-01T17:18:35", "distance": 1354.302900371114, "travel_time": 685.0, "wait_time": 169.0, "feed": "bus_company", "agency_id": "MTABC", "route_id": "Q72", "start_stop_id": "551997", "end_stop_id": "552009"}, "geometry": {"type": "LineString", "coordinates": [[-73.868117, 40.74577], [-73.868125, 40.745806], [-73.868252, 40.74634], [-73.868414, 40.746947], [-73.868435, 40.747062], [-73.868527, 40.747613], [-73.868575, 40.747793], [-73.868636, 40.747924], [-73.86893, 40.748377], [-73.869186, 40.748793], [-73.869394, 40.749139], [-73.869425, 40.749192], [-73.869457, 40.749241], [-73.869624, 40.749509], [-73.869643, 40.749539], [-73.869693, 40.749618], [-73.870057, 40.750251], [-73.870771, 40.751477], [-73.870838, 40.751571], [-73.870923, 40.751726], [-73.870945, 40.751765], [-73.871037, 40.751934], [-73.871777, 40.753346], [-73.872064, 40.753893], [-73.872127, 40.754007], [-73.872669, 40.75502], [-73.872706, 40.755098], [-73.872764, 40.755206], [-73.872784, 40.755243], [-73.873608, 40.756772], [-73.873673, 40.756873], [-73.873806, 40.757122]]}}, {"type": "Feature", "properties": {"GEOID": "36081046300", "nearest_facility_id": "6016", "sport_type": "soccer", "window_name": "weekday_evening", "option": 5, "segment": 2, "transport_mode": "TransportMode.WALK", "departure_time": "2026-09-01T17:31:00", "distance": 298.042, "travel_time": 302.0, "wait_time": 0.0, "feed": null, "agency_id": null, "route_id": null, "start_stop_id": null, "end_stop_id": null}, "geometry": {"type": "LineString", "coordinates": [[-73.873766, 40.757159], [-73.873742, 40.757182], [-73.873701, 40.757109], [-73.873805, 40.757083], [-73.873736, 40.756955], [-73.873714, 40.756912], [-73.873791, 40.756906], [-73.873831, 40.756902], [-73.874177, 40.756865], [-73.875081, 40.756768], [-73.875077, 40.75675], [-73.87506, 40.756653], [-73.875042, 40.756552], [-73.875042, 40.756531], [-73.874756, 40.754925]]}}, {"type": "Feature", "properties": {"GEOID": "36081046500", "nearest_facility_id": "6016", "sport_type": "soccer", "window_name": "weekday_evening", "option": 5, "segment": 0, "transport_mode": "TransportMode.WALK", "departure_time": "2026-09-01T17:11:49", "distance": 469.166, "travel_time": 477.0, "wait_time": 0.0, "feed": null, "agency_id": null, "route_id": null, "start_stop_id": null, "end_stop_id": null}, "geometry": {"type": "LineString", "coordinates": [[-73.869772, 40.745944], [-73.870256, 40.746954], [-73.870262, 40.74697], [-73.870284, 40.747018], [-73.8703, 40.747052], [-73.870309, 40.747068], [-73.87086, 40.748133], [-73.870061, 40.748398], [-73.870073, 40.748419], [-73.87009, 40.748447], [-73.870016, 40.748472], [-73.869933, 40.7485], [-73.869887, 40.748515], [-73.869323, 40.748717], [-73.869259, 40.74874], [-73.869176, 40.748769], [-73.869208, 40.748817], [-73.869372, 40.749075], [-73.869296, 40.749082], [-73.869261, 40.749086], [-73.86927, 40.749102], [-73.869298, 40.749171], [-73.86933, 40.74925], [-73.869339, 40.749264], [-73.869558, 40.74961], [-73.869573, 40.749564]]}}, {"type": "Feature", "properties": {"GEOID": "36081046500", "nearest_facility_id": "6016", "sport_type": "soccer", "window_name": "weekday_evening", "option": 5, "segment": 1, "transport_mode": "TransportMode.BUS", "departure_time": "2026-09-01T17:22:00", "distance": 916.1924472634954, "travel_time": 480.0, "wait_time": 134.0, "feed": "bus_company", "agency_id": "MTABC", "route_id": "Q72", "start_stop_id": "552001", "end_stop_id": "552009"}, "geometry": {"type": "LineString", "coordinates": [[-73.869624, 40.749509], [-73.869643, 40.749539], [-73.869693, 40.749618], [-73.870057, 40.750251], [-73.870771, 40.751477], [-73.870838, 40.751571], [-73.870923, 40.751726], [-73.870945, 40.751765], [-73.871037, 40.751934], [-73.871777, 40.753346], [-73.872064, 40.753893], [-73.872127, 40.754007], [-73.872669, 40.75502], [-73.872706, 40.755098], [-73.872764, 40.755206], [-73.872784, 40.755243], [-73.873608, 40.756772], [-73.873673, 40.756873], [-73.873806, 40.757122]]}}, {"type": "Feature", "properties": {"GEOID": "36081046500", "nearest_facility_id": "6016", "sport_type": "soccer", "window_name": "weekday_evening", "option": 5, "segment": 2, "transport_mode": "TransportMode.WALK", "departure_time": "2026-09-01T17:31:00", "distance": 298.042, "travel_time": 302.0, "wait_time": 0.0, "feed": null, "agency_id": null, "route_id": null, "start_stop_id": null, "end_stop_id": null}, "geometry": {"type": "LineString", "coordinates": [[-73.873766, 40.757159], [-73.873742, 40.757182], [-73.873701, 40.757109], [-73.873805, 40.757083], [-73.873736, 40.756955], [-73.873714, 40.756912], [-73.873791, 40.756906], [-73.873831, 40.756902], [-73.874177, 40.756865], [-73.875081, 40.756768], [-73.875077, 40.75675], [-73.87506, 40.756653], [-73.875042, 40.756552], [-73.875042, 40.756531], [-73.874756, 40.754925]]}}, {"type": "Feature", "properties": {"GEOID": "36081046700", "nearest_facility_id": "6016", "sport_type": "soccer", "window_name": "weekday_evening", "option": 0, "segment": 0, "transport_mode": "TransportMode.WALK", "departure_time": null, "distance": 1277.433, "travel_time": 1293.0, "wait_time": 0.0, "feed": null, "agency_id": null, "route_id": null, "start_stop_id": null, "end_stop_id": null}, "geometry": {"type": "LineString", "coordinates": [[-73.87338, 40.745184], [-73.875282, 40.74603], [-73.875362, 40.746066], [-73.875316, 40.746125], [-73.874933, 40.746622], [-73.874896, 40.74667], [-73.874858, 40.746719], [-73.87447, 40.747224], [-73.874442, 40.747262], [-73.874402, 40.747315], [-73.874016, 40.747815], [-73.873978, 40.747865], [-73.87393, 40.747927], [-73.873513, 40.748468], [-73.873402, 40.748621], [-73.873366, 40.748675], [-73.873303, 40.748758], [-73.873701, 40.748717], [-73.873717, 40.748802], [-73.874003, 40.750361], [-73.874015, 40.750426], [-73.874024, 40.750489], [-73.874073, 40.750757], [-73.874087, 40.750833], [-73.874101, 40.750908], [-73.874443, 40.752794], [-73.874455, 40.752859], [-73.874471, 40.752946], [-73.874523, 40.753232], [-73.874615, 40.753744], [-73.874623, 40.753786], [-73.874667, 40.75403], [-73.874789, 40.754715], [-73.874802, 40.75478], [-73.87481, 40.754833], [-73.874826, 40.75492], [-73.874779, 40.754923], [-73.874756, 40.754925], [-73.875042, 40.756531]]}}, {"type": "Feature", "properties": {"GEOID": "36081046901", "nearest_facility_id": "6016", "sport_type": "soccer", "window_name": "weekday_evening", "option": 0, "segment": 0, "transport_mode": "TransportMode.WALK", "departure_time": null, "distance": 1578.331, "travel_time": 1604.0, "wait_time": 0.0, "feed": null, "agency_id": null, "route_id": null, "start_stop_id": null, "end_stop_id": null}, "geometry": {"type": "LineString", "coordinates": [[-73.877796, 40.743047], [-73.879224, 40.743682], [-73.879212, 40.743696], [-73.879187, 40.743729], [-73.87925, 40.743757], [-73.87921, 40.743817], [-73.878827, 40.744322], [-73.878791, 40.744371], [-73.878755, 40.744416], [-73.878366, 40.744915], [-73.878322, 40.744973], [-73.878276, 40.74503], [-73.878112, 40.745244], [-73.87806, 40.745329], [-73.877931, 40.745549], [-73.877902, 40.745595], [-73.877871, 40.745646], [-73.877563, 40.746176], [-73.877532, 40.746225], [-73.877502, 40.74628], [-73.877187, 40.746816], [-73.877159, 40.746865], [-73.877125, 40.746927], [-73.876791, 40.74752], [-73.876443, 40.7481], [-73.876414, 40.748153], [-73.876389, 40.7482], [-73.876288, 40.748373], [-73.876252, 40.748439], [-73.87619, 40.74855], [-73.875762, 40.749329], [-73.875719, 40.749408], [-73.875471, 40.749828], [-73.875429, 40.749882], [-73.875376, 40.749931], [-73.874975, 40.750076], [-73.874904, 40.750103], [-73.874833, 40.750131], [-73.874841, 40.750182], [-73.874844, 40.750193], [-73.874095, 40.750461], [-73.87407, 40.75047], [-73.874024, 40.750489], [-73.874073, 40.750757], [-73.874087, 40.750833], [-73.874101, 40.750908], [-73.874443, 40.752794], [-73.874455, 40.752859], [-73.874471, 40.752946], [-73.874523, 40.753232], [-73.874615, 40.753744], [-73.874623, 40.753786], [-73.874667, 40.75403], [-73.874789, 40.754715], [-73.874802, 40.75478], [-73.87481, 40.754833], [-73.874826, 40.75492], [-73.874779, 40.754923], [-73.874756, 40.754925], [-73.875042, 40.756531]]}}, {"type": "Feature", "properties": {"GEOID": "36081046902", "nearest_facility_id": "6016", "sport_type": "soccer", "window_name": "weekday_evening", "option": 0, "segment": 0, "transport_mode": "TransportMode.WALK", "departure_time": null, "distance": 1232.401, "travel_time": 1249.0, "wait_time": 0.0, "feed": null, "agency_id": null, "route_id": null, "start_stop_id": null, "end_stop_id": null}, "geometry": {"type": "LineString", "coordinates": [[-73.875398, 40.746159], [-73.877059, 40.746897], [-73.877074, 40.746904], [-73.877125, 40.746927], [-73.876791, 40.74752], [-73.876443, 40.7481], [-73.876414, 40.748153], [-73.876389, 40.7482], [-73.876288, 40.748373], [-73.876252, 40.748439], [-73.87619, 40.74855], [-73.875762, 40.749329], [-73.875719, 40.749408], [-73.875471, 40.749828], [-73.875429, 40.749882], [-73.875376, 40.749931], [-73.874975, 40.750076], [-73.874904, 40.750103], [-73.874833, 40.750131], [-73.874841, 40.750182], [-73.874844, 40.750193], [-73.874095, 40.750461], [-73.87407, 40.75047], [-73.874024, 40.750489], [-73.874073, 40.750757], [-73.874087, 40.750833], [-73.874101, 40.750908], [-73.874443, 40.752794], [-73.874455, 40.752859], [-73.874471, 40.752946], [-73.874523, 40.753232], [-73.874615, 40.753744], [-73.874623, 40.753786], [-73.874667, 40.75403], [-73.874789, 40.754715], [-73.874802, 40.75478], [-73.87481, 40.754833], [-73.874826, 40.75492], [-73.874779, 40.754923], [-73.874756, 40.754925], [-73.875042, 40.756531]]}}, {"type": "Feature", "properties": {"GEOID": "36081047100", "nearest_facility_id": "6183", "sport_type": "soccer", "window_name": "weekday_evening", "option": 9, "segment": 0, "transport_mode": "TransportMode.WALK", "departure_time": "2026-09-01T17:14:57", "distance": 709.27, "travel_time": 726.0, "wait_time": 0.0, "feed": null, "agency_id": null, "route_id": null, "start_stop_id": null, "end_stop_id": null}, "geometry": {"type": "LineString", "coordinates": [[-73.876975, 40.740964], [-73.878353, 40.739952], [-73.87837, 40.739966], [-73.878408, 40.740002], [-73.878439, 40.740033], [-73.878452, 40.740043], [-73.878474, 40.740037], [-73.878557, 40.740008], [-73.878647, 40.739976], [-73.878667, 40.739974], [-73.87894, 40.739806], [-73.878993, 40.739767], [-73.88, 40.738949], [-73.880018, 40.738934], [-73.88006, 40.738902], [-73.880093, 40.738877], [-73.880106, 40.73887], [-73.881189, 40.737991], [-73.881216, 40.737985], [-73.881268, 40.737977], [-73.881336, 40.737966], [-73.881366, 40.73796], [-73.88148, 40.737938], [-73.881815, 40.737876], [-73.882121, 40.737933], [-73.882181, 40.737944], [-73.882458, 40.737998], [-73.882484, 40.738003], [-73.882538, 40.738015], [-73.882608, 40.738031], [-73.882638, 40.738036], [-73.882814, 40.738067], [-73.883087, 40.738118], [-73.883494, 40.738196], [-73.883529, 40.738203], [-73.883602, 40.738216], [-73.883666, 40.738227], [-73.883689, 40.738232], [-73.883753, 40.738244], [-73.883749, 40.738284]]}}, {"type": "Feature", "properties": {"GEOID": "36081047100", "nearest_facility_id": "6183", "sport_type": "soccer", "window_name": "weekday_evening", "option": 9, "segment": 1, "transport_mode": "TransportMode.BUS", "departure_time": "2026-09-01T17:24:12", "distance": 1641.9228980142473, "travel_time": 588.0, "wait_time": 345.0, "feed": "bus_company", "agency_id": "MTABC", "route_id": "Q60", "start_stop_id": "551703", "end_stop_id": "551627"}, "geometry": {"type": "LineString", "coordinates": [[-73.883756, 40.738222], [-73.883768, 40.738224], [-73.884659, 40.738391], [-73.885675, 40.738582], [-73.885778, 40.7386], [-73.886372, 40.73871], [-73.887253, 40.738869], [-73.887526, 40.738919], [-73.887633, 40.738932], [-73.8877, 40.738953], [-73.887956, 40.739003], [-73.888231, 40.739063], [-73.889543, 40.739311], [-73.889555, 40.739313], [-73.889724, 40.739345], [-73.889953, 40.739381], [-73.890234, 40.739432], [-73.890474, 40.739472], [-73.890779, 40.73953], [-73.892245, 40.739797], [-73.893729, 40.740064], [-73.894024, 40.740122], [-73.894035, 40.740124], [-73.894207, 40.740158], [-73.894692, 40.740271], [-73.895684, 40.740456], [-73.895697, 40.740458], [-73.89585, 40.740487], [-73.89645, 40.740604], [-73.896582, 40.74063], [-73.896862, 40.740683], [-73.897277, 40.740757], [-73.897375, 40.740775], [-73.897433, 40.740785], [-73.897519, 40.740804], [-73.8976, 40.740816], [-73.897677, 40.740832], [-73.897849, 40.740864], [-73.89848, 40.740984], [-73.898587, 40.741004], [-73.898752, 40.741033], [-73.898933, 40.741064], [-73.899163, 40.741095], [-73.899372, 40.741119], [-73.899565, 40.741142], [-73.899756, 40.741164], [-73.899763, 40.741165], [-73.900553, 40.741257], [-73.90151, 40.741373], [-73.901908, 40.741417], [-73.902421, 40.741476], [-73.902491, 40.741483], [-73.902563, 40.741491], [-73.9027, 40.741506]]}}, {"type": "Feature", "properties": {"GEOID": "36081047100", "nearest_facility_id": "6183", "sport_type": "soccer", "window_name": "weekday_evening", "option": 9, "segment": 2, "transport_mode": "TransportMode.WALK", "departure_time": "2026-09-01T17:35:00", "distance": 371.004, "travel_time": 378.0, "wait_time": 0.0, "feed": null, "agency_id": null, "route_id": null, "start_stop_id": null, "end_stop_id": null}, "geometry": {"type": "LineString", "coordinates": [[-73.902696, 40.741561], [-73.902696, 40.741562], [-73.902514, 40.74154], [-73.902499, 40.741538], [-73.902445, 40.741534], [-73.902467, 40.741473], [-73.902491, 40.741328], [-73.902524, 40.741203], [-73.902553, 40.741095], [-73.90245, 40.74108], [-73.90246, 40.741034], [-73.902467, 40.741022], [-73.902551, 40.740881], [-73.902554, 40.740871], [-73.902554, 40.740856], [-73.902557, 40.74048], [-73.902559, 40.740473], [-73.902563, 40.740468], [-73.902568, 40.740465], [-73.902578, 40.740462], [-73.902759, 40.740391], [-73.902766, 40.740386], [-73.90277, 40.740379], [-73.902839, 40.740196], [-73.902924, 40.739951], [-73.903369, 40.738799], [-73.903375, 40.738776], [-73.903372, 40.738752], [-73.903359, 40.738729], [-73.903335, 40.738701]]}}, {"type": "Feature", "properties": {"GEOID": "36081047300", "nearest_facility_id": "6183", "sport_type": "soccer", "window_name": "weekday_evening", "option": 7, "segment": 0, "transport_mode": "TransportMode.WALK", "departure_time": "2026-09-01T17:19:14", "distance": 184.007, "travel_time": 185.0, "wait_time": 0.0, "feed": null, "agency_id": null, "route_id": null, "start_stop_id": null, "end_stop_id": null}, "geometry": {"type": "LineString", "coordinates": [[-73.875925, 40.736398], [-73.876041, 40.736483], [-73.876051, 40.736498], [-73.87605, 40.736521], [-73.876045, 40.736542], [-73.876057, 40.736563], [-73.876107, 40.736606], [-73.876128, 40.736634], [-73.876154, 40.736674], [-73.876172, 40.736698], [-73.876278, 40.736797], [-73.876294, 40.736803], [-73.876307, 40.736803], [-73.876321, 40.736799], [-73.876729, 40.736492], [-73.877389, 40.736935], [-73.877347, 40.73703], [-73.877223, 40.737015]]}}, {"type": "Feature", "properties": {"GEOID": "36081047300", "nearest_facility_id": "6183", "sport_type": "soccer", "window_name": "weekday_evening", "option": 7, "segment": 1, "transport_mode": "TransportMode.SUBWAY", "departure_time": "2026-09-01T17:18:30", "distance": 1658.944125358145, "travel_time": 210.0, "wait_time": 345.0, "feed": "subway", "agency_id": "MTA NYCT", "route_id": "R", "start_stop_id": "G12S", "end_stop_id": "G14S"}, "geometry": {"type": "LineString", "coordinates": [[-73.877223, 40.737015], [-73.878602, 40.739655], [-73.878649, 40.739739], [-73.878696, 40.739821], [-73.878744, 40.7399], [-73.878794, 40.739977], [-73.878845, 40.740052], [-73.878897, 40.740124], [-73.87895, 40.740194], [-73.879004, 40.740261], [-73.87906, 40.740326], [-73.879117, 40.740389], [-73.879175, 40.740449], [-73.879235, 40.740506], [-73.879295, 40.740561], [-73.879357, 40.740614], [-73.879422, 40.740665], [-73.880977, 40.741822], [-73.881044, 40.741868], [-73.881112, 40.741913], [-73.881179, 40.741957], [-73.881247, 40.742001], [-73.881316, 40.742045], [-73.881384, 40.742088], [-73.881453, 40.742131], [-73.881523, 40.742173], [-73.881592, 40.742215], [-73.881662, 40.742256], [-73.881732, 40.742296], [-73.881803, 40.742337], [-73.881874, 40.742376], [-73.881945, 40.742415], [-73.882017, 40.742454], [-73.882064, 40.742482], [-73.882114, 40.74251], [-73.882165, 40.742539], [-73.882218, 40.742569], [-73.882273, 40.742599], [-73.88233, 40.74263], [-73.882388, 40.742661], [-73.882448, 40.742693], [-73.88251, 40.742726], [-73.882574, 40.742759], [-73.882639, 40.742792], [-73.882706, 40.742827], [-73.882775, 40.742862], [-73.882846, 40.742897], [-73.882917, 40.742933], [-73.884523, 40.743718], [-73.884561, 40.743737], [-73.8846, 40.743756], [-73.884639, 40.743775], [-73.884679, 40.743794], [-73.884719, 40.743813], [-73.88476, 40.743832], [-73.884801, 40.743851], [-73.884843, 40.743871], [-73.884885, 40.74389], [-73.884928, 40.743909], [-73.884971, 40.743928], [-73.885015, 40.743948], [-73.885059, 40.743967], [-73.885104, 40.743987], [-73.885149, 40.744006], [-73.891338, 40.746644]]}}, {"type": "Feature", "properties": {"GEOID": "36081047300", "nearest_facility_id": "6183", "sport_type": "soccer", "window_name": "weekday_evening", "option": 7, "segment": 2, "transport_mode": "TransportMode.WALK", "departure_time": "2026-09-01T17:23:00", "distance": 28.869, "travel_time": 29.0, "wait_time": 59.0, "feed": null, "agency_id": null, "route_id": null, "start_stop_id": null, "end_stop_id": null}, "geometry": {"type": "LineString", "coordinates": [[-73.891335, 40.746656], [-73.891402, 40.746685], [-73.891409, 40.746726], [-73.891415, 40.746769], [-73.891429, 40.746846], [-73.891358, 40.746854], [-73.891348, 40.746855]]}}, {"type": "Feature", "properties": {"GEOID": "36081047300", "nearest_facility_id": "6183", "sport_type": "soccer", "window_name": "weekday_evening", "option": 7, "segment": 3, "transport_mode": "TransportMode.SUBWAY", "departure_time": "2026-09-01T17:24:30", "distance": 987.8682381777217, "travel_time": 150.0, "wait_time": 122.0, "feed": "subway", "agency_id": "MTA NYCT", "route_id": "7", "start_stop_id": "710S", "end_stop_id": "712S"}, "geometry": {"type": "LineString", "coordinates": [[-73.891394, 40.746848], [-73.896403, 40.746325], [-73.902984, 40.74563]]}}, {"type": "Feature", "properties": {"GEOID": "36081047300", "nearest_facility_id": "6183", "sport_type": "soccer", "window_name": "weekday_evening", "option": 7, "segment": 4, "transport_mode": "TransportMode.WALK", "departure_time": "2026-09-01T17:28:00", "distance": 897.683, "travel_time": 916.0, "wait_time": 0.0, "feed": null, "agency_id": null, "route_id": null, "start_stop_id": null, "end_stop_id": null}, "geometry": {"type": "LineString", "coordinates": [[-73.902984, 40.74563], [-73.902989, 40.74562], [-73.902883, 40.745522], [-73.902438, 40.745113], [-73.902451, 40.745106], [-73.902475, 40.745087], [-73.902484, 40.74508], [-73.902384, 40.744996], [-73.90252, 40.744698], [-73.902094, 40.744582], [-73.901744, 40.744454], [-73.901341, 40.744307], [-73.901346, 40.744292], [-73.901365, 40.74423], [-73.901382, 40.744168], [-73.901389, 40.744149], [-73.901434, 40.744023], [-73.901441, 40.744005], [-73.901458, 40.743959], [-73.901471, 40.743926], [-73.901477, 40.743906], [-73.901584, 40.743592], [-73.902055, 40.742365], [-73.902369, 40.741527], [-73.902376, 40.741506], [-73.902386, 40.741465], [-73.902394, 40.741414], [-73.902401, 40.741375], [-73.902411, 40.741314], [-73.902417, 40.74128], [-73.902423, 40.741246], [-73.902432, 40.741191], [-73.902438, 40.741154], [-73.902441, 40.741138], [-73.90245, 40.74108], [-73.90246, 40.741034], [-73.902467, 40.741022], [-73.902551, 40.740881], [-73.902554, 40.740871], [-73.902554, 40.740856], [-73.902557, 40.74048], [-73.902559, 40.740473], [-73.902563, 40.740468], [-73.902568, 40.740465], [-73.902578, 40.740462], [-73.902759, 40.740391], [-73.902766, 40.740386], [-73.90277, 40.740379], [-73.902839, 40.740196], [-73.902924, 40.739951], [-73.903369, 40.738799], [-73.903375, 40.738776], [-73.903372, 40.738752], [-73.903359, 40.738729], [-73.903335, 40.738701]]}}, {"type": "Feature", "properties": {"GEOID": "36081047500", "nearest_facility_id": "6183", "sport_type": "soccer", "window_name": "weekday_evening", "option": 3, "segment": 0, "transport_mode": "TransportMode.WALK", "departure_time": "2026-09-01T17:05:14", "distance": 182.083, "travel_time": 188.0, "wait_time": 0.0, "feed": null, "agency_id": null, "route_id": null, "start_stop_id": null, "end_stop_id": null}, "geometry": {"type": "LineString", "coordinates": [[-73.875619, 40.733921], [-73.874746, 40.734554], [-73.874771, 40.734566], [-73.874824, 40.734588], [-73.874777, 40.73463], [-73.874728, 40.734679], [-73.874684, 40.734725], [-73.87459, 40.734819], [-73.874565, 40.734844], [-73.874514, 40.734894], [-73.874455, 40.734938], [-73.874346, 40.73499], [-73.874405, 40.735019], [-73.874436, 40.735034], [-73.874492, 40.735063], [-73.874496, 40.735049]]}}, {"type": "Feature", "properties": {"GEOID": "36081047500", "nearest_facility_id": "6183", "sport_type": "soccer", "window_name": "weekday_evening", "option": 3, "segment": 1, "transport_mode": "TransportMode.BUS", "departure_time": "2026-09-01T17:18:57", "distance": 2692.4854684847287, "travel_time": 960.0, "wait_time": 113.0, "feed": "bus_company", "agency_id": "MTABC", "route_id": "Q60", "start_stop_id": "551642", "end_stop_id": "551625"}, "geometry": {"type": "LineString", "coordinates": [[-73.874515, 40.734985], [-73.874541, 40.734999], [-73.875004, 40.735239], [-73.875173, 40.73534], [-73.875441, 40.735511], [-73.875862, 40.73578], [-73.876223, 40.736043], [-73.876455, 40.736216], [-73.876538, 40.736281], [-73.876906, 40.736561], [-73.877305, 40.736843], [-73.877539, 40.736976], [-73.87784, 40.737087], [-73.878276, 40.737177], [-73.87829, 40.73718], [-73.878394, 40.737202], [-73.879374, 40.737376], [-73.879518, 40.737405], [-73.879531, 40.737408], [-73.879711, 40.737445], [-73.880338, 40.737558], [-73.881332, 40.737756], [-73.881505, 40.737786], [-73.881653, 40.737813], [-73.881791, 40.737841], [-73.882551, 40.737971], [-73.883629, 40.738198], [-73.883756, 40.738222], [-73.883768, 40.738224], [-73.884659, 40.738391], [-73.885675, 40.738582], [-73.885778, 40.7386], [-73.886372, 40.73871], [-73.887253, 40.738869], [-73.887526, 40.738919], [-73.887633, 40.738932], [-73.8877, 40.738953], [-73.887956, 40.739003], [-73.888231, 40.739063], [-73.889543, 40.739311], [-73.889555, 40.739313], [-73.889724, 40.739345], [-73.889953, 40.739381], [-73.890234, 40.739432], [-73.890474, 40.739472], [-73.890779, 40.73953], [-73.892245, 40.739797], [-73.893729, 40.740064], [-73.894024, 40.740122], [-73.894035, 40.740124], [-73.894207, 40.740158], [-73.894692, 40.740271], [-73.895684, 40.740456], [-73.895697, 40.740458], [-73.89585, 40.740487], [-73.89645, 40.740604], [-73.896582, 40.74063], [-73.896862, 40.740683], [-73.897277, 40.740757], [-73.897375, 40.740775], [-73.897433, 40.740785], [-73.897519, 40.740804], [-73.8976, 40.740816], [-73.897677, 40.740832], [-73.897849, 40.740864], [-73.89848, 40.740984], [-73.898587, 40.741004], [-73.898752, 40.741033], [-73.898933, 40.741064], [-73.899163, 40.741095], [-73.899372, 40.741119], [-73.899565, 40.741142], [-73.899756, 40.741164], [-73.899763, 40.741165], [-73.900553, 40.741257], [-73.90151, 40.741373], [-73.901908, 40.741417], [-73.902421, 40.741476], [-73.902491, 40.741483], [-73.902563, 40.741491], [-73.9027, 40.741506], [-73.902706, 40.741507], [-73.902897, 40.741528], [-73.903651, 40.741612], [-73.904536, 40.741716], [-73.904674, 40.741732]]}}, {"type": "Feature", "properties": {"GEOID": "36081047500", "nearest_facility_id": "6183", "sport_type": "soccer", "window_name": "weekday_evening", "option": 3, "segment": 2, "transport_mode": "TransportMode.WALK", "departure_time": "2026-09-01T17:35:57", "distance": 534.23, "travel_time": 548.0, "wait_time": 0.0, "feed": null, "agency_id": null, "route_id": null, "start_stop_id": null, "end_stop_id": null}, "geometry": {"type": "LineString", "coordinates": [[-73.904671, 40.741783], [-73.904626, 40.741785], [-73.90459, 40.741783], [-73.904534, 40.741779], [-73.904479, 40.741776], [-73.904443, 40.741773], [-73.904438, 40.741746], [-73.904425, 40.74169], [-73.904421, 40.741663], [-73.90442, 40.741651], [-73.904421, 40.741617], [-73.904426, 40.741565], [-73.90443, 40.741529], [-73.904438, 40.741485], [-73.904448, 40.741436], [-73.904457, 40.741399], [-73.904469, 40.741365], [-73.904471, 40.741355], [-73.904486, 40.741313], [-73.904498, 40.741279], [-73.904502, 40.741268], [-73.902887, 40.741088], [-73.902872, 40.741086], [-73.902782, 40.741069], [-73.902731, 40.741059], [-73.90263, 40.741044], [-73.902572, 40.741035], [-73.902503, 40.741026], [-73.902467, 40.741022], [-73.902551, 40.740881], [-73.902554, 40.740871], [-73.902554, 40.740856], [-73.902557, 40.74048], [-73.902559, 40.740473], [-73.902563, 40.740468], [-73.902568, 40.740465], [-73.902578, 40.740462], [-73.902759, 40.740391], [-73.902766, 40.740386], [-73.90277, 40.740379], [-73.902839, 40.740196], [-73.902924, 40.739951], [-73.903369, 40.738799], [-73.903375, 40.738776], [-73.903372, 40.738752], [-73.903359, 40.738729], [-73.903335, 40.738701]]}}, {"type": "Feature", "properties": {"GEOID": "36081047900", "nearest_facility_id": "6183", "sport_type": "soccer", "window_name": "weekday_evening", "option": 2, "segment": 0, "transport_mode": "TransportMode.WALK", "departure_time": "2026-09-01T17:08:28", "distance": 849.005, "travel_time": 874.0, "wait_time": 0.0, "feed": null, "agency_id": null, "route_id": null, "start_stop_id": null, "end_stop_id": null}, "geometry": {"type": "LineString", "coordinates": [[-73.884267, 40.736773], [-73.884319, 40.736323], [-73.884407, 40.735631], [-73.884505, 40.734822], [-73.884865, 40.734973], [-73.884877, 40.734978], [-73.884925, 40.735001], [-73.884988, 40.735029], [-73.885384, 40.735198], [-73.885754, 40.735367], [-73.885771, 40.735377], [-73.885821, 40.735399], [-73.885893, 40.735432], [-73.885906, 40.735438], [-73.885953, 40.735447], [-73.886261, 40.73559], [-73.886655, 40.735761], [-73.886668, 40.735766], [-73.886712, 40.735785], [-73.886788, 40.735819], [-73.886803, 40.735826], [-73.887159, 40.73599], [-73.887543, 40.736151], [-73.887479, 40.736708], [-73.887477, 40.736717], [-73.887464, 40.736788], [-73.887451, 40.736859], [-73.887449, 40.73687], [-73.887289, 40.73814], [-73.887252, 40.738391], [-73.887248, 40.738408], [-73.887244, 40.738442], [-73.887238, 40.738486], [-73.887235, 40.738538], [-73.887233, 40.738573], [-73.88723, 40.738628], [-73.887228, 40.738657], [-73.887226, 40.738693], [-73.887222, 40.738751], [-73.887215, 40.738778], [-73.887197, 40.738831], [-73.887184, 40.738868], [-73.88718, 40.73888], [-73.887428, 40.738924], [-73.888112, 40.739063], [-73.88814, 40.73907], [-73.88822, 40.739088], [-73.888314, 40.739106], [-73.888335, 40.73911], [-73.889539, 40.739338], [-73.889536, 40.739371]]}}, {"type": "Feature", "properties": {"GEOID": "36081047900", "nearest_facility_id": "6183", "sport_type": "soccer", "window_name": "weekday_evening", "option": 2, "segment": 1, "transport_mode": "TransportMode.BUS", "departure_time": "2026-09-01T17:20:13", "distance": 1307.0499586828382, "travel_time": 464.0, "wait_time": 288.0, "feed": "bus_company", "agency_id": "MTABC", "route_id": "Q60", "start_stop_id": "551705", "end_stop_id": "551625"}, "geometry": {"type": "LineString", "coordinates": [[-73.889543, 40.739311], [-73.889555, 40.739313], [-73.889724, 40.739345], [-73.889953, 40.739381], [-73.890234, 40.739432], [-73.890474, 40.739472], [-73.890779, 40.73953], [-73.892245, 40.739797], [-73.893729, 40.740064], [-73.894024, 40.740122], [-73.894035, 40.740124], [-73.894207, 40.740158], [-73.894692, 40.740271], [-73.895684, 40.740456], [-73.895697, 40.740458], [-73.89585, 40.740487], [-73.89645, 40.740604], [-73.896582, 40.74063], [-73.896862, 40.740683], [-73.897277, 40.740757], [-73.897375, 40.740775], [-73.897433, 40.740785], [-73.897519, 40.740804], [-73.8976, 40.740816], [-73.897677, 40.740832], [-73.897849, 40.740864], [-73.89848, 40.740984], [-73.898587, 40.741004], [-73.898752, 40.741033], [-73.898933, 40.741064], [-73.899163, 40.741095], [-73.899372, 40.741119], [-73.899565, 40.741142], [-73.899756, 40.741164], [-73.899763, 40.741165], [-73.900553, 40.741257], [-73.90151, 40.741373], [-73.901908, 40.741417], [-73.902421, 40.741476], [-73.902491, 40.741483], [-73.902563, 40.741491], [-73.9027, 40.741506], [-73.902706, 40.741507], [-73.902897, 40.741528], [-73.903651, 40.741612], [-73.904536, 40.741716], [-73.904674, 40.741732]]}}, {"type": "Feature", "properties": {"GEOID": "36081047900", "nearest_facility_id": "6183", "sport_type": "soccer", "window_name": "weekday_evening", "option": 2, "segment": 2, "transport_mode": "TransportMode.WALK", "departure_time": "2026-09-01T17:35:57", "distance": 534.23, "travel_time": 548.0, "wait_time": 0.0, "feed": null, "agency_id": null, "route_id": null, "start_stop_id": null, "end_stop_id": null}, "geometry": {"type": "LineString", "coordinates": [[-73.904671, 40.741783], [-73.904626, 40.741785], [-73.90459, 40.741783], [-73.904534, 40.741779], [-73.904479, 40.741776], [-73.904443, 40.741773], [-73.904438, 40.741746], [-73.904425, 40.74169], [-73.904421, 40.741663], [-73.90442, 40.741651], [-73.904421, 40.741617], [-73.904426, 40.741565], [-73.90443, 40.741529], [-73.904438, 40.741485], [-73.904448, 40.741436], [-73.904457, 40.741399], [-73.904469, 40.741365], [-73.904471, 40.741355], [-73.904486, 40.741313], [-73.904498, 40.741279], [-73.904502, 40.741268], [-73.902887, 40.741088], [-73.902872, 40.741086], [-73.902782, 40.741069], [-73.902731, 40.741059], [-73.90263, 40.741044], [-73.902572, 40.741035], [-73.902503, 40.741026], [-73.902467, 40.741022], [-73.902551, 40.740881], [-73.902554, 40.740871], [-73.902554, 40.740856], [-73.902557, 40.74048], [-73.902559, 40.740473], [-73.902563, 40.740468], [-73.902568, 40.740465], [-73.902578, 40.740462], [-73.902759, 40.740391], [-73.902766, 40.740386], [-73.90277, 40.740379], [-73.902839, 40.740196], [-73.902924, 40.739951], [-73.903369, 40.738799], [-73.903375, 40.738776], [-73.903372, 40.738752], [-73.903359, 40.738729], [-73.903335, 40.738701]]}}, {"type": "Feature", "properties": {"GEOID": "36081048100", "nearest_facility_id": "6183", "sport_type": "soccer", "window_name": "weekday_evening", "option": 3, "segment": 0, "transport_mode": "TransportMode.WALK", "departure_time": "2026-09-01T17:19:14", "distance": 676.92, "travel_time": 685.0, "wait_time": 0.0, "feed": null, "agency_id": null, "route_id": null, "start_stop_id": null, "end_stop_id": null}, "geometry": {"type": "LineString", "coordinates": [[-73.884703, 40.743663], [-73.885031, 40.742998], [-73.884727, 40.741485], [-73.884758, 40.741475], [-73.884813, 40.741469], [-73.884799, 40.741397], [-73.884892, 40.741386], [-73.885246, 40.741345], [-73.885649, 40.741298], [-73.885726, 40.741289], [-73.885803, 40.74128], [-73.886578, 40.741191], [-73.886668, 40.741178], [-73.886699, 40.74112], [-73.887028, 40.740516], [-73.887048, 40.740478], [-73.887089, 40.740403], [-73.887394, 40.740367], [-73.888153, 40.740277], [-73.888189, 40.740273], [-73.888266, 40.740264], [-73.888345, 40.740255], [-73.88834, 40.740225], [-73.888337, 40.740198], [-73.889758, 40.740046], [-73.8897, 40.739974], [-73.88964, 40.739865], [-73.889602, 40.739731], [-73.889585, 40.739631], [-73.889572, 40.739574], [-73.889615, 40.739352], [-73.889539, 40.739338], [-73.889536, 40.739371]]}}, {"type": "Feature", "properties": {"GEOID": "36081048100", "nearest_facility_id": "6183", "sport_type": "soccer", "window_name": "weekday_evening", "option": 3, "segment": 1, "transport_mode": "TransportMode.BUS", "departure_time": "2026-09-01T17:27:13", "distance": 1307.0500099879764, "travel_time": 464.0, "wait_time": 112.0, "feed": "bus_company", "agency_id": "MTABC", "route_id": "Q60", "start_stop_id": "551705", "end_stop_id": "551625"}, "geometry": {"type": "LineString", "coordinates": [[-73.889543, 40.739311], [-73.889555, 40.739313], [-73.889724, 40.739345], [-73.889953, 40.739381], [-73.890234, 40.739432], [-73.890474, 40.739472], [-73.890779, 40.73953], [-73.892245, 40.739797], [-73.893729, 40.740064], [-73.894024, 40.740122], [-73.894035, 40.740124], [-73.894207, 40.740158], [-73.894692, 40.740271], [-73.895684, 40.740456], [-73.895697, 40.740458], [-73.89585, 40.740487], [-73.89645, 40.740604], [-73.896582, 40.74063], [-73.896862, 40.740683], [-73.897277, 40.740757], [-73.897375, 40.740775], [-73.897433, 40.740785], [-73.897519, 40.740804], [-73.8976, 40.740816], [-73.897677, 40.740832], [-73.897849, 40.740864], [-73.89848, 40.740984], [-73.898587, 40.741004], [-73.898752, 40.741033], [-73.898933, 40.741064], [-73.899163, 40.741095], [-73.899372, 40.741119], [-73.899565, 40.741142], [-73.899756, 40.741164], [-73.899763, 40.741165], [-73.900553, 40.741257], [-73.90151, 40.741373], [-73.901908, 40.741417], [-73.902421, 40.741476], [-73.902491, 40.741483], [-73.902563, 40.741491], [-73.9027, 40.741506], [-73.902706, 40.741507], [-73.902897, 40.741528], [-73.903651, 40.741612], [-73.904536, 40.741716], [-73.904674, 40.741732]]}}, {"type": "Feature", "properties": {"GEOID": "36081048100", "nearest_facility_id": "6183", "sport_type": "soccer", "window_name": "weekday_evening", "option": 3, "segment": 2, "transport_mode": "TransportMode.WALK", "departure_time": "2026-09-01T17:35:57", "distance": 534.23, "travel_time": 548.0, "wait_time": 0.0, "feed": null, "agency_id": null, "route_id": null, "start_stop_id": null, "end_stop_id": null}, "geometry": {"type": "LineString", "coordinates": [[-73.904671, 40.741783], [-73.904626, 40.741785], [-73.90459, 40.741783], [-73.904534, 40.741779], [-73.904479, 40.741776], [-73.904443, 40.741773], [-73.904438, 40.741746], [-73.904425, 40.74169], [-73.904421, 40.741663], [-73.90442, 40.741651], [-73.904421, 40.741617], [-73.904426, 40.741565], [-73.90443, 40.741529], [-73.904438, 40.741485], [-73.904448, 40.741436], [-73.904457, 40.741399], [-73.904469, 40.741365], [-73.904471, 40.741355], [-73.904486, 40.741313], [-73.904498, 40.741279], [-73.904502, 40.741268], [-73.902887, 40.741088], [-73.902872, 40.741086], [-73.902782, 40.741069], [-73.902731, 40.741059], [-73.90263, 40.741044], [-73.902572, 40.741035], [-73.902503, 40.741026], [-73.902467, 40.741022], [-73.902551, 40.740881], [-73.902554, 40.740871], [-73.902554, 40.740856], [-73.902557, 40.74048], [-73.902559, 40.740473], [-73.902563, 40.740468], [-73.902568, 40.740465], [-73.902578, 40.740462], [-73.902759, 40.740391], [-73.902766, 40.740386], [-73.90277, 40.740379], [-73.902839, 40.740196], [-73.902924, 40.739951], [-73.903369, 40.738799], [-73.903375, 40.738776], [-73.903372, 40.738752], [-73.903359, 40.738729], [-73.903335, 40.738701]]}}, {"type": "Feature", "properties": {"GEOID": "36081048301", "nearest_facility_id": "6183", "sport_type": "soccer", "window_name": "weekday_evening", "option": 0, "segment": 0, "transport_mode": "TransportMode.WALK", "departure_time": null, "distance": 1354.592, "travel_time": 1374.0, "wait_time": 0.0, "feed": null, "agency_id": null, "route_id": null, "start_stop_id": null, "end_stop_id": null}, "geometry": {"type": "LineString", "coordinates": [[-73.888637, 40.741804], [-73.889951, 40.74165], [-73.890152, 40.741626], [-73.890475, 40.741589], [-73.890503, 40.741586], [-73.89056, 40.741578], [-73.890547, 40.741513], [-73.890627, 40.741503], [-73.890666, 40.741498], [-73.890967, 40.741459], [-73.891761, 40.741351], [-73.892382, 40.741295], [-73.892428, 40.741292], [-73.892509, 40.741284], [-73.89258, 40.741275], [-73.892605, 40.741273], [-73.895606, 40.740922], [-73.895683, 40.740913], [-73.895799, 40.740899], [-73.895805, 40.740839], [-73.895817, 40.74071], [-73.89595, 40.740709], [-73.896049, 40.740708], [-73.896137, 40.740707], [-73.89627, 40.740691], [-73.89631, 40.740652], [-73.896323, 40.740631], [-73.896365, 40.740567], [-73.89683, 40.740656], [-73.89776, 40.740832], [-73.898485, 40.740972], [-73.898811, 40.741041], [-73.898954, 40.741061], [-73.899044, 40.741078], [-73.899443, 40.741126], [-73.899548, 40.741139], [-73.89957, 40.741036], [-73.899589, 40.740948], [-73.899611, 40.740842], [-73.899633, 40.740732], [-73.89976, 40.740747], [-73.899938, 40.740767], [-73.899959, 40.740769], [-73.900016, 40.740776], [-73.900182, 40.740796], [-73.900604, 40.740846], [-73.900927, 40.740882], [-73.901497, 40.74095], [-73.901686, 40.740962], [-73.901687, 40.740931], [-73.901751, 40.740936], [-73.901763, 40.740938], [-73.902396, 40.741013], [-73.902467, 40.741022], [-73.902551, 40.740881], [-73.902554, 40.740871], [-73.902554, 40.740856], [-73.902557, 40.74048], [-73.902559, 40.740473], [-73.902563, 40.740468], [-73.902568, 40.740465], [-73.902578, 40.740462], [-73.902759, 40.740391], [-73.902766, 40.740386], [-73.90277, 40.740379], [-73.902839, 40.740196], [-73.902924, 40.739951], [-73.903369, 40.738799], [-73.903375, 40.738776], [-73.903372, 40.738752], [-73.903359, 40.738729], [-73.903335, 40.738701]]}}, {"type": "Feature", "properties": {"GEOID": "36081048500", "nearest_facility_id": "6183", "sport_type": "soccer", "window_name": "weekday_evening", "option": 1, "segment": 0, "transport_mode": "TransportMode.WALK", "departure_time": "2026-09-01T17:14:57", "distance": 404.945, "travel_time": 410.0, "wait_time": 0.0, "feed": null, "agency_id": null, "route_id": null, "start_stop_id": null, "end_stop_id": null}, "geometry": {"type": "LineString", "coordinates": [[-73.885044, 40.740237], [-73.885968, 40.739961], [-73.886106, 40.739925], [-73.8867, 40.739749], [-73.887222, 40.739606], [-73.88771, 40.739545], [-73.887766, 40.739534], [-73.887788, 40.739528], [-73.887809, 40.739517], [-73.887864, 40.739481], [-73.88788, 40.739467], [-73.887901, 40.739477], [-73.887929, 40.739491], [-73.88799, 40.739442], [-73.888078, 40.739328], [-73.888195, 40.739134], [-73.88822, 40.739088], [-73.888314, 40.739106], [-73.888335, 40.73911], [-73.889539, 40.739338], [-73.889536, 40.739371]]}}, {"type": "Feature", "properties": {"GEOID": "36081048500", "nearest_facility_id": "6183", "sport_type": "soccer", "window_name": "weekday_evening", "option": 1, "segment": 1, "transport_mode": "TransportMode.BUS", "departure_time": "2026-09-01T17:12:13", "distance": 1307.0500099879764, "travel_time": 464.0, "wait_time": 272.0, "feed": "bus_company", "agency_id": "MTABC", "route_id": "Q60", "start_stop_id": "551705", "end_stop_id": "551625"}, "geometry": {"type": "LineString", "coordinates": [[-73.889543, 40.739311], [-73.889555, 40.739313], [-73.889724, 40.739345], [-73.889953, 40.739381], [-73.890234, 40.739432], [-73.890474, 40.739472], [-73.890779, 40.73953], [-73.892245, 40.739797], [-73.893729, 40.740064], [-73.894024, 40.740122], [-73.894035, 40.740124], [-73.894207, 40.740158], [-73.894692, 40.740271], [-73.895684, 40.740456], [-73.895697, 40.740458], [-73.89585, 40.740487], [-73.89645, 40.740604], [-73.896582, 40.74063], [-73.896862, 40.740683], [-73.897277, 40.740757], [-73.897375, 40.740775], [-73.897433, 40.740785], [-73.897519, 40.740804], [-73.8976, 40.740816], [-73.897677, 40.740832], [-73.897849, 40.740864], [-73.89848, 40.740984], [-73.898587, 40.741004], [-73.898752, 40.741033], [-73.898933, 40.741064], [-73.899163, 40.741095], [-73.899372, 40.741119], [-73.899565, 40.741142], [-73.899756, 40.741164], [-73.899763, 40.741165], [-73.900553, 40.741257], [-73.90151, 40.741373], [-73.901908, 40.741417], [-73.902421, 40.741476], [-73.902491, 40.741483], [-73.902563, 40.741491], [-73.9027, 40.741506], [-73.902706, 40.741507], [-73.902897, 40.741528], [-73.903651, 40.741612], [-73.904536, 40.741716], [-73.904674, 40.741732]]}}, {"type": "Feature", "properties": {"GEOID": "36081048500", "nearest_facility_id": "6183", "sport_type": "soccer", "window_name": "weekday_evening", "option": 1, "segment": 2, "transport_mode": "TransportMode.WALK", "departure_time": "2026-09-01T17:28:57", "distance": 534.23, "travel_time": 548.0, "wait_time": 0.0, "feed": null, "agency_id": null, "route_id": null, "start_stop_id": null, "end_stop_id": null}, "geometry": {"type": "LineString", "coordinates": [[-73.904671, 40.741783], [-73.904626, 40.741785], [-73.90459, 40.741783], [-73.904534, 40.741779], [-73.904479, 40.741776], [-73.904443, 40.741773], [-73.904438, 40.741746], [-73.904425, 40.74169], [-73.904421, 40.741663], [-73.90442, 40.741651], [-73.904421, 40.741617], [-73.904426, 40.741565], [-73.90443, 40.741529], [-73.904438, 40.741485], [-73.904448, 40.741436], [-73.904457, 40.741399], [-73.904469, 40.741365], [-73.904471, 40.741355], [-73.904486, 40.741313], [-73.904498, 40.741279], [-73.904502, 40.741268], [-73.902887, 40.741088], [-73.902872, 40.741086], [-73.902782, 40.741069], [-73.902731, 40.741059], [-73.90263, 40.741044], [-73.902572, 40.741035], [-73.902503, 40.741026], [-73.902467, 40.741022], [-73.902551, 40.740881], [-73.902554, 40.740871], [-73.902554, 40.740856], [-73.902557, 40.74048], [-73.902559, 40.740473], [-73.902563, 40.740468], [-73.902568, 40.740465], [-73.902578, 40.740462], [-73.902759, 40.740391], [-73.902766, 40.740386], [-73.90277, 40.740379], [-73.902839, 40.740196], [-73.902924, 40.739951], [-73.903369, 40.738799], [-73.903375, 40.738776], [-73.903372, 40.738752], [-73.903359, 40.738729], [-73.903335, 40.738701]]}}, {"type": "Feature", "properties": {"GEOID": "36081049900", "nearest_facility_id": "6457", "sport_type": "soccer", "window_name": "weekday_evening", "option": 2, "segment": 0, "transport_mode": "TransportMode.WALK", "departure_time": "2026-09-01T17:14:57", "distance": 220.327, "travel_time": 227.0, "wait_time": 0.0, "feed": null, "agency_id": null, "route_id": null, "start_stop_id": null, "end_stop_id": null}, "geometry": {"type": "LineString", "coordinates": [[-73.880192, 40.729738], [-73.882396, 40.731569], [-73.882956, 40.731186], [-73.882972, 40.731174], [-73.882999, 40.731157], [-73.883023, 40.731143], [-73.883067, 40.73118], [-73.883118, 40.731224], [-73.883157, 40.731198], [-73.883171, 40.731189], [-73.883722, 40.730816], [-73.883742, 40.730807], [-73.883808, 40.730762], [-73.883864, 40.730723], [-73.88389, 40.730704], [-73.883933, 40.730759], [-73.883937, 40.730753]]}}, {"type": "Feature", "properties": {"GEOID": "36081049900", "nearest_facility_id": "6457", "sport_type": "soccer", "window_name": "weekday_evening", "option": 2, "segment": 1, "transport_mode": "TransportMode.BUS", "departure_time": "2026-09-01T17:10:15", "distance": 768.9824898526425, "travel_time": 230.0, "wait_time": 337.0, "feed": "bus_company", "agency_id": "MTABC", "route_id": "Q47", "start_stop_id": "551549", "end_stop_id": "553197"}, "geometry": {"type": "LineString", "coordinates": [[-73.883862, 40.73086], [-73.883819, 40.730808], [-73.883756, 40.730731], [-73.883048, 40.729824], [-73.882415, 40.728997], [-73.882275, 40.72882], [-73.882165, 40.72869], [-73.882056, 40.728548], [-73.881972, 40.728444], [-73.881885, 40.728345], [-73.881745, 40.728203], [-73.880954, 40.727236], [-73.880945, 40.727224], [-73.880924, 40.7272], [-73.880784, 40.72704], [-73.880417, 40.726559], [-73.879643, 40.725593], [-73.8792, 40.725041], [-73.879143, 40.724968], [-73.879125, 40.724946]]}}, {"type": "Feature", "properties": {"GEOID": "36081049900", "nearest_facility_id": "6457", "sport_type": "soccer", "window_name": "weekday_evening", "option": 2, "segment": 2, "transport_mode": "TransportMode.WALK", "departure_time": "2026-09-01T17:25:05", "distance": 877.434, "travel_time": 902.0, "wait_time": 0.0, "feed": null, "agency_id": null, "route_id": null, "start_stop_id": null, "end_stop_id": null}, "geometry": {"type": "LineString", "coordinates": [[-73.879197, 40.724846], [-73.879194, 40.724851], [-73.879236, 40.724903], [-73.879295, 40.724876], [-73.879589, 40.724742], [-73.879924, 40.72459], [-73.87993, 40.724588], [-73.879982, 40.724564], [-73.880027, 40.724544], [-73.880039, 40.724538], [-73.880387, 40.724375], [-73.880727, 40.724217], [-73.880736, 40.724212], [-73.880786, 40.724188], [-73.880825, 40.724169], [-73.880838, 40.724163], [-73.88118, 40.724004], [-73.881524, 40.723845], [-73.881531, 40.723842], [-73.881587, 40.723817], [-73.881626, 40.723799], [-73.88164, 40.723793], [-73.881713, 40.723758], [-73.881998, 40.723625], [-73.882323, 40.723475], [-73.882333, 40.723471], [-73.882382, 40.723448], [-73.882428, 40.723426], [-73.88244, 40.723421], [-73.882771, 40.723267], [-73.88312, 40.723104], [-73.883135, 40.723096], [-73.883184, 40.723074], [-73.883228, 40.723053], [-73.88324, 40.723047], [-73.883913, 40.722733], [-73.883932, 40.722725], [-73.883986, 40.7227], [-73.884028, 40.722682], [-73.884046, 40.722674], [-73.884466, 40.722482], [-73.884508, 40.722093], [-73.88451, 40.722069], [-73.884514, 40.721967], [-73.884519, 40.721823], [-73.884525, 40.7218], [-73.884592, 40.721319], [-73.884594, 40.721309], [-73.884612, 40.721229], [-73.884627, 40.721158], [-73.88463, 40.721146], [-73.884584, 40.721091], [-73.884489, 40.721045], [-73.884536, 40.720872], [-73.884668, 40.720387], [-73.884687, 40.720324], [-73.884714, 40.720259], [-73.884785, 40.720144], [-73.884788, 40.720133], [-73.884877, 40.719837], [-73.884788, 40.71982], [-73.884752, 40.719814]]}}, {"type": "Feature", "properties": {"GEOID": "36081068300", "nearest_facility_id": "6457", "sport_type": "soccer", "window_name": "weekday_evening", "option": 1, "segment": 0, "transport_mode": "TransportMode.WALK", "departure_time": "2026-09-01T17:08:28", "distance": 345.724, "travel_time": 358.0, "wait_time": 0.0, "feed": null, "agency_id": null, "route_id": null, "start_stop_id": null, "end_stop_id": null}, "geometry": {"type": "LineString", "coordinates": [[-73.869461, 40.735197], [-73.869595, 40.735165], [-73.869576, 40.735116], [-73.869562, 40.735079], [-73.869652, 40.735056], [-73.869617, 40.734962], [-73.869546, 40.734772], [-73.869519, 40.734706], [-73.869338, 40.734217], [-73.86933, 40.7342], [-73.869992, 40.733982], [-73.870109, 40.73393], [-73.870381, 40.733866], [-73.870448, 40.733886], [-73.87046, 40.733864], [-73.870472, 40.733838], [-73.870511, 40.73375], [-73.870529, 40.733708], [-73.870529, 40.733687], [-73.87065, 40.73346], [-73.870681, 40.733434], [-73.870733, 40.733377], [-73.870767, 40.733339], [-73.870793, 40.733314], [-73.870851, 40.733238], [-73.870868, 40.733218], [-73.870884, 40.733175], [-73.870906, 40.733119], [-73.87093, 40.733103], [-73.870955, 40.733123], [-73.870998, 40.733125], [-73.871107, 40.733132], [-73.871107, 40.733148]]}}, {"type": "Feature", "properties": {"GEOID": "36081068300", "nearest_facility_id": "6457", "sport_type": "soccer", "window_name": "weekday_evening", "option": 1, "segment": 1, "transport_mode": "TransportMode.BUS", "departure_time": "2026-09-01T17:10:00", "distance": 1608.9577818361654, "travel_time": 345.0, "wait_time": 191.0, "feed": "bus_brooklyn", "agency_id": "MTA NYCT", "route_id": "Q14", "start_stop_id": "553196", "end_stop_id": "551329"}, "geometry": {"type": "LineString", "coordinates": [[-73.871106, 40.733195], [-73.871104, 40.733195], [-73.871019, 40.733192], [-73.870659, 40.733152], [-73.870849, 40.732802], [-73.870999, 40.732532], [-73.871249, 40.732082], [-73.871379, 40.731852], [-73.871459, 40.731682], [-73.871529, 40.731522], [-73.871569, 40.731422], [-73.871649, 40.731132], [-73.871679, 40.730872], [-73.871679, 40.730432], [-73.871649, 40.730052], [-73.871619, 40.729822], [-73.871579, 40.729592], [-73.871539, 40.729402], [-73.871519, 40.729332], [-73.871619, 40.729102], [-73.872099, 40.728742], [-73.873155, 40.727964], [-73.873191, 40.727937], [-73.873239, 40.727902], [-73.873569, 40.727652], [-73.873819, 40.727492], [-73.874099, 40.727342], [-73.874709, 40.727082], [-73.874939, 40.726972], [-73.875423, 40.726751], [-73.875456, 40.726736], [-73.875509, 40.726712], [-73.876289, 40.726362], [-73.877569, 40.725762], [-73.877949, 40.725582], [-73.878379, 40.725392], [-73.879062, 40.725071], [-73.879092, 40.725057], [-73.879209, 40.725002], [-73.880029, 40.724622], [-73.880839, 40.724252], [-73.881639, 40.723872], [-73.882335, 40.723546], [-73.882367, 40.723531]]}}, {"type": "Feature", "properties": {"GEOID": "36081068300", "nearest_facility_id": "6457", "sport_type": "soccer", "window_name": "weekday_evening", "option": 1, "segment": 2, "transport_mode": "TransportMode.WALK", "departure_time": "2026-09-01T17:26:45", "distance": 583.25, "travel_time": 595.0, "wait_time": 0.0, "feed": null, "agency_id": null, "route_id": null, "start_stop_id": null, "end_stop_id": null}, "geometry": {"type": "LineString", "coordinates": [[-73.882388, 40.723611], [-73.882413, 40.72361], [-73.882368, 40.72355], [-73.882438, 40.723519], [-73.882508, 40.723487], [-73.882828, 40.723338], [-73.883237, 40.723148], [-73.883333, 40.723103], [-73.883864, 40.722856], [-73.883974, 40.722805], [-73.884044, 40.722773], [-73.884105, 40.722745], [-73.884497, 40.722566], [-73.884471, 40.722496], [-73.884466, 40.722482], [-73.884508, 40.722093], [-73.88451, 40.722069], [-73.884514, 40.721967], [-73.884519, 40.721823], [-73.884525, 40.7218], [-73.884592, 40.721319], [-73.884594, 40.721309], [-73.884612, 40.721229], [-73.884627, 40.721158], [-73.88463, 40.721146], [-73.884584, 40.721091], [-73.884489, 40.721045], [-73.884536, 40.720872], [-73.884668, 40.720387], [-73.884687, 40.720324], [-73.884714, 40.720259], [-73.884785, 40.720144], [-73.884788, 40.720133], [-73.884877, 40.719837], [-73.884788, 40.71982], [-73.884752, 40.719814]]}}]}