{
"type": "FeatureCollection",
"name": "QN0401",
"crs": { "type": "name", "properties": { "name": "urn:ogc:def:crs:OGC:1.3:CRS84" } },
"features": [
{ "type": "Feature", "properties": { "GEOID": "36081026700" }, "geometry": { "type": "Polygon", "coordinates": [ [ [ -73.8838425257388, 40.745796680372187 ], [ -73.884251280690947, 40.745201837563428 ], [ -73.884669483792294, 40.744589048250432 ], [ -73.885094419998481, 40.743973957252564 ], [ -73.885382631146925, 40.743848794973282 ], [ -73.886024312802121, 40.743791745897425 ], [ -73.886208180026003, 40.743775403237152 ], [ -73.887098440858878, 40.743675918000804 ], [ -73.887986507953258, 40.743548192370206 ], [ -73.88886955118501, 40.743399319915547 ], [ -73.889744167570598, 40.743268291608381 ], [ -73.889791598308918, 40.743261186475308 ], [ -73.889838318078972, 40.743254449368258 ], [ -73.890716475229851, 40.743127783975673 ], [ -73.891045360403155, 40.744860747342173 ], [ -73.891110262264007, 40.74520271861217 ], [ -73.891153646843108, 40.745424633186971 ], [ -73.89138108011889, 40.746587938460202 ], [ -73.891391455322562, 40.746641004832618 ], [ -73.891431286204025, 40.746844736954912 ], [ -73.890501291483176, 40.74694193921178 ], [ -73.88957128360839, 40.74703905370307 ], [ -73.888677662065717, 40.747134277851238 ], [ -73.887783268838859, 40.747228926736412 ], [ -73.88764663725344, 40.747244839375711 ], [ -73.886716562531319, 40.747341462519479 ], [ -73.885787404538505, 40.74743975449384 ], [ -73.885730127391597, 40.7471248527551 ], [ -73.885487756941501, 40.745792239447198 ], [ -73.884559507852288, 40.745890341828314 ], [ -73.884125868014266, 40.745910555678641 ], [ -73.8838425257388, 40.745796680372187 ] ] ] } },
{ "type": "Feature", "properties": { "GEOID": "36081026901" }, "geometry": { "type": "Polygon", "coordinates": [ [ [ -73.879817645279857, 40.746441906507933 ], [ -73.880284040421856, 40.74583541342318 ], [ -73.880747080362625, 40.745233184677076 ], [ -73.882104619189988, 40.745835653284651 ], [ -73.883402696674636, 40.746417603905002 ], [ -73.883646710330879, 40.74606803036999 ], [ -73.8838425257388, 40.745796680372187 ], [ -73.884125868014266, 40.745910555678641 ], [ -73.884559507852288, 40.745890341828314 ], [ -73.885487756941501, 40.745792239447198 ], [ -73.885730127391597, 40.7471248527551 ], [ -73.885787404538505, 40.74743975449384 ], [ -73.88485538467171, 40.747534811566709 ], [ -73.883935794628016, 40.747630242517999 ], [ -73.882999182887986, 40.747734402423852 ], [ -73.882568769560237, 40.74777784590988 ], [ -73.882071121271551, 40.747829926818142 ], [ -73.881137476010935, 40.74792729349543 ], [ -73.880206480255225, 40.748024980195268 ], [ -73.879838948538932, 40.748061725041843 ], [ -73.87927779959648, 40.748124092975203 ], [ -73.878457793354244, 40.748214810868497 ], [ -73.878892010620277, 40.747638872187991 ], [ -73.879362706005949, 40.747033748257813 ], [ -73.879817645279857, 40.746441906507933 ] ] ] } },
{ "type": "Feature", "properties": { "GEOID": "36081026902" }, "geometry": { "type": "Polygon", "coordinates": [ [ [ -73.880747080362625, 40.745233184677076 ], [ -73.881211536553707, 40.744628523674251 ], [ -73.881657662246667, 40.744047488943274 ], [ -73.882112997069669, 40.743456269061468 ], [ -73.882633415118477, 40.742786976005029 ], [ -73.8828314463113, 40.742888376164345 ], [ -73.88387556287681, 40.743397329341747 ], [ -73.884710262610085, 40.743794417942674 ], [ -73.885094419998481, 40.743973957252564 ], [ -73.884669483792294, 40.744589048250432 ], [ -73.884251280690947, 40.745201837563428 ], [ -73.8838425257388, 40.745796680372187 ], [ -73.883646710330879, 40.74606803036999 ], [ -73.883402696674636, 40.746417603905002 ], [ -73.882104619189988, 40.745835653284651 ], [ -73.880747080362625, 40.745233184677076 ] ] ] } },
{ "type": "Feature", "properties": { "GEOID": "36081027101" }, "geometry": { "type": "Polygon", "coordinates": [ [ [ -73.877903827383307, 40.74558969685269 ], [ -73.878319450881193, 40.744964779489678 ], [ -73.878784375592289, 40.744360912581527 ], [ -73.879249956130309, 40.743756836373606 ], [ -73.879810677439977, 40.743104195326829 ], [ -73.880337212458784, 40.742534127629575 ], [ -73.88100387984025, 40.741840662492784 ], [ -73.881880019145029, 40.742376979589345 ], [ -73.882633415118477, 40.742786976005029 ], [ -73.882112997069669, 40.743456269061468 ], [ -73.881657662246667, 40.744047488943274 ], [ -73.881211536553707, 40.744628523674251 ], [ -73.880747080362625, 40.745233184677076 ], [ -73.880284040421856, 40.74583541342318 ], [ -73.879817645279857, 40.746441906507933 ], [ -73.877903827383307, 40.74558969685269 ] ] ] } },
{ "type": "Feature", "properties": { "GEOID": "36081027102" }, "geometry": { "type": "Polygon", "coordinates": [ [ [ -73.877903827383307, 40.74558969685269 ], [ -73.879817645279857, 40.746441906507933 ], [ -73.879362706005949, 40.747033748257813 ], [ -73.878892010620277, 40.747638872187991 ], [ -73.878457793354244, 40.748214810868497 ], [ -73.878343125543836, 40.74822266004265 ], [ -73.877416124262098, 40.748319373846954 ], [ -73.876924582552803, 40.748368989117758 ], [ -73.876479530438871, 40.748416402110173 ], [ -73.87625180213054, 40.748438850113452 ], [ -73.876418315244905, 40.748140969763249 ], [ -73.876788805878562, 40.747510625053799 ], [ -73.877158724854198, 40.746865031921232 ], [ -73.877535902422679, 40.746221688277281 ], [ -73.877903827383307, 40.74558969685269 ] ] ] } },
{ "type": "Feature", "properties": { "GEOID": "36081045700" }, "geometry": { "type": "Polygon", "coordinates": [ [ [ -73.866094637380726, 40.737251430150778 ], [ -73.867834356549182, 40.736913209937249 ], [ -73.868228430333104, 40.73684853605878 ], [ -73.870094175578927, 40.736521880143883 ], [ -73.872101144267106, 40.735993852946436 ], [ -73.872655657107842, 40.735742757384749 ], [ -73.872772078390881, 40.736046205229755 ], [ -73.873036789846239, 40.736747857713489 ], [ -73.873297404676251, 40.737433720987895 ], [ -73.873567466344085, 40.738116827271391 ], [ -73.870939647828266, 40.738702755632659 ], [ -73.868720172371923, 40.73919948883298 ], [ -73.867039737365644, 40.739572190408367 ], [ -73.866760121791188, 40.738890370405286 ], [ -73.866480115721345, 40.738210964597002 ], [ -73.866094637380726, 40.737251430150778 ] ] ] } },
{ "type": "Feature", "properties": { "GEOID": "36081045900" }, "geometry": { "type": "Polygon", "coordinates": [ [ [ -73.867039737365644, 40.739572190408367 ], [ -73.868720172371923, 40.73919948883298 ], [ -73.870939647828266, 40.738702755632659 ], [ -73.873567466344085, 40.738116827271391 ], [ -73.873835314747453, 40.738802732809617 ], [ -73.87410287335301, 40.739487914961778 ], [ -73.874361251597762, 40.740159886824507 ], [ -73.873480518111933, 40.740356673950799 ], [ -73.872614325966467, 40.740549626698822 ], [ -73.87172323227459, 40.740747711884119 ], [ -73.870857526342903, 40.740940687644446 ], [ -73.869506409148144, 40.741242914000836 ], [ -73.867557295548579, 40.741677697326672 ], [ -73.86756253428625, 40.740941889093968 ], [ -73.867317794570738, 40.740261345192224 ], [ -73.867146698164376, 40.739837224402415 ], [ -73.867039737365644, 40.739572190408367 ] ] ] } },
{ "type": "Feature", "properties": { "GEOID": "36081046100" }, "geometry": { "type": "Polygon", "coordinates": [ [ [ -73.86749135058345, 40.743302047457568 ], [ -73.867486301031676, 40.742992194594045 ], [ -73.867471692337162, 40.742095722519807 ], [ -73.867557295548579, 40.741677697326672 ], [ -73.869506409148144, 40.741242914000836 ], [ -73.870857526342903, 40.740940687644446 ], [ -73.87172323227459, 40.740747711884119 ], [ -73.872614325966467, 40.740549626698822 ], [ -73.873480518111933, 40.740356673950799 ], [ -73.874361251597762, 40.740159886824507 ], [ -73.874795575897238, 40.741288092568048 ], [ -73.875019228025707, 40.741494344644842 ], [ -73.873729953380845, 40.742428656743932 ], [ -73.873485207519764, 40.742500932469348 ], [ -73.873358544688628, 40.742495589219672 ], [ -73.872372942928621, 40.742454023331476 ], [ -73.871420281355654, 40.742412414253309 ], [ -73.870327839548651, 40.74236552390758 ], [ -73.870361554406657, 40.742501808122874 ], [ -73.869036637267826, 40.742895190812519 ], [ -73.867613790626564, 40.743317632358661 ], [ -73.86749135058345, 40.743302047457568 ] ] ] } },
{ "type": "Feature", "properties": { "GEOID": "36081046700" }, "geometry": { "type": "Polygon", "coordinates": [ [ [ -73.8719442337582, 40.746904314893797 ], [ -73.8723845013496, 40.746347091864322 ], [ -73.872840195327854, 40.745755612103778 ], [ -73.873304584112304, 40.745151369862228 ], [ -73.873770621600826, 40.744547911368713 ], [ -73.874225512766444, 40.743954559884038 ], [ -73.874685095904582, 40.743349333875308 ], [ -73.874657779622382, 40.743268339964715 ], [ -73.875670714534664, 40.742970460156087 ], [ -73.876759654574869, 40.742645575324268 ], [ -73.878125161776921, 40.742235252754298 ], [ -73.878205112220741, 40.742198029022681 ], [ -73.878293106945478, 40.742170791444529 ], [ -73.878385768780205, 40.742154843476754 ], [ -73.878479346898942, 40.742150583046524 ], [ -73.878241700769138, 40.742396620392078 ], [ -73.877683067959552, 40.743060819773042 ], [ -73.877210617536932, 40.743660920057522 ], [ -73.876745849328245, 40.744264888402185 ], [ -73.876281829166984, 40.744869172424593 ], [ -73.875826679119996, 40.745461477753139 ], [ -73.875361801524647, 40.746065630242335 ], [ -73.874895756040942, 40.746669626424783 ], [ -73.874441716825729, 40.747262314347658 ], [ -73.87397770606097, 40.74786468896901 ], [ -73.873739121437666, 40.748174345852746 ], [ -73.8735132357818, 40.748467519525818 ], [ -73.873303100960143, 40.748758125141372 ], [ -73.872773568562437, 40.74881295798523 ], [ -73.872372563536672, 40.748851551331406 ], [ -73.872220389347802, 40.748157236648055 ], [ -73.872155304417603, 40.747872098943191 ], [ -73.872068446414147, 40.747480651428432 ], [ -73.871964374745389, 40.746984384057853 ], [ -73.8719442337582, 40.746904314893797 ] ] ] } },
{ "type": "Feature", "properties": { "GEOID": "36081046901" }, "geometry": { "type": "Polygon", "coordinates": [ [ [ -73.876281829166984, 40.744869172424593 ], [ -73.876745849328245, 40.744264888402185 ], [ -73.877210617536932, 40.743660920057522 ], [ -73.877683067959552, 40.743060819773042 ], [ -73.878241700769138, 40.742396620392078 ], [ -73.878479346898942, 40.742150583046524 ], [ -73.878860230020834, 40.741746269365528 ], [ -73.879175300476831, 40.741624852323902 ], [ -73.880277654109946, 40.741297461517718 ], [ -73.88100387984025, 40.741840662492784 ], [ -73.880337212458784, 40.742534127629575 ], [ -73.879810677439977, 40.743104195326829 ], [ -73.879249956130309, 40.743756836373606 ], [ -73.878784375592289, 40.744360912581527 ], [ -73.878319450881193, 40.744964779489678 ], [ -73.877903827383307, 40.74558969685269 ], [ -73.876281829166984, 40.744869172424593 ] ] ] } },
{ "type": "Feature", "properties": { "GEOID": "36081046902" }, "geometry": { "type": "Polygon", "coordinates": [ [ [ -73.876281829166984, 40.744869172424593 ], [ -73.877903827383307, 40.74558969685269 ], [ -73.877535902422679, 40.746221688277281 ], [ -73.877158724854198, 40.746865031921232 ], [ -73.876788805878562, 40.747510625053799 ], [ -73.876418315244905, 40.748140969763249 ], [ -73.87625180213054, 40.748438850113452 ], [ -73.875556431471708, 40.748513608551754 ], [ -73.875432361629734, 40.74852735952166 ], [ -73.874629463510445, 40.748613927918953 ], [ -73.873982937461875, 40.748685668974026 ], [ -73.873700982836482, 40.748717319480335 ], [ -73.873303100960143, 40.748758125141372 ], [ -73.8735132357818, 40.748467519525818 ], [ -73.873739121437666, 40.748174345852746 ], [ -73.87397770606097, 40.74786468896901 ], [ -73.874441716825729, 40.747262314347658 ], [ -73.874895756040942, 40.746669626424783 ], [ -73.875361801524647, 40.746065630242335 ], [ -73.875826679119996, 40.745461477753139 ], [ -73.876281829166984, 40.744869172424593 ] ] ] } },
{ "type": "Feature", "properties": { "GEOID": "36081047300" }, "geometry": { "type": "Polygon", "coordinates": [ [ [ -73.873567466344085, 40.738116827271391 ], [ -73.873297404676251, 40.737433720987895 ], [ -73.873036789846239, 40.736747857713489 ], [ -73.872772078390881, 40.736046205229755 ], [ -73.872655657107842, 40.735742757384749 ], [ -73.874351108088277, 40.734966454566475 ], [ -73.874423876608859, 40.734904587450949 ], [ -73.874526324142607, 40.734817475709313 ], [ -73.874581069376291, 40.734770934964189 ], [ -73.874660227025075, 40.734711127192675 ], [ -73.874770219395742, 40.734628013761125 ], [ -73.875118378915701, 40.734814175701118 ], [ -73.875533230226409, 40.73503599703502 ], [ -73.875770005981295, 40.735183944178281 ], [ -73.876191361447241, 40.735501990392926 ], [ -73.876935208364515, 40.736034818031499 ], [ -73.877051650688358, 40.736103039792113 ], [ -73.877284783945612, 40.736246232031142 ], [ -73.877837522350461, 40.736585731687761 ], [ -73.878029785835949, 40.736656128783039 ], [ -73.878228449730202, 40.736715924373591 ], [ -73.878431976627567, 40.736764656775755 ], [ -73.879426592384533, 40.736954944635045 ], [ -73.879801350028288, 40.737026115866854 ], [ -73.880354256112611, 40.737131123501491 ], [ -73.880552001938781, 40.737175966732202 ], [ -73.88158378328329, 40.737377766131203 ], [ -73.882272984493909, 40.737509333931662 ], [ -73.882872702234721, 40.7376113427283 ], [ -73.882458615067009, 40.737678413760797 ], [ -73.882302526111488, 40.737707701153532 ], [ -73.882134937596035, 40.737739839929645 ], [ -73.88178451767557, 40.737807026955529 ], [ -73.881289672625201, 40.737895147180424 ], [ -73.879648503695051, 40.738190440524626 ], [ -73.879550388320212, 40.738187437895768 ], [ -73.879451548923228, 40.738198113637708 ], [ -73.879356899754328, 40.738222255614843 ], [ -73.879270942898771, 40.738258366681698 ], [ -73.878234905852779, 40.7384445362501 ], [ -73.87797778371656, 40.738495791413989 ], [ -73.877430584185603, 40.738600515669219 ], [ -73.876477560584746, 40.738903662290646 ], [ -73.87410287335301, 40.739487914961778 ], [ -73.873835314747453, 40.738802732809617 ], [ -73.873567466344085, 40.738116827271391 ] ] ] } },
{ "type": "Feature", "properties": { "GEOID": "36081048100" }, "geometry": { "type": "Polygon", "coordinates": [ [ [ -73.882633415118477, 40.742786976005029 ], [ -73.881880019145029, 40.742376979589345 ], [ -73.88100387984025, 40.741840662492784 ], [ -73.881863990688174, 40.741734567918293 ], [ -73.882942868152568, 40.741609543720344 ], [ -73.882829121730353, 40.740992282854478 ], [ -73.883253183164669, 40.740859456253588 ], [ -73.883334351115465, 40.740834026569331 ], [ -73.884169721996798, 40.740572373045715 ], [ -73.88461489934673, 40.740432934646357 ], [ -73.885407051881288, 40.7401964323562 ], [ -73.885512251285206, 40.740165018886003 ], [ -73.885590370820196, 40.740576557624223 ], [ -73.885725881905032, 40.741288705425021 ], [ -73.886668269325781, 40.7411781452657 ], [ -73.887511320575101, 40.741082526635843 ], [ -73.887986507953258, 40.743548192370206 ], [ -73.887098440858878, 40.743675918000804 ], [ -73.886208180026003, 40.743775403237152 ], [ -73.886024312802121, 40.743791745897425 ], [ -73.885382631146925, 40.743848794973282 ], [ -73.885094419998481, 40.743973957252564 ], [ -73.884710262610085, 40.743794417942674 ], [ -73.88387556287681, 40.743397329341747 ], [ -73.8828314463113, 40.742888376164345 ], [ -73.882633415118477, 40.742786976005029 ] ] ] } },
{ "type": "Feature", "properties": { "GEOID": "36081068300" }, "geometry": { "type": "Polygon", "coordinates": [ [ [ -73.865829560398979, 40.736643223514761 ], [ -73.865500616487154, 40.735989332008508 ], [ -73.865158654368656, 40.735325014482179 ], [ -73.864815053124445, 40.734660215825748 ], [ -73.864621934221759, 40.734281690115701 ], [ -73.864572486421494, 40.734188397515702 ], [ -73.865002296286917, 40.734053139902358 ], [ -73.865328572149693, 40.733950461864566 ], [ -73.86591580688706, 40.733765658561424 ], [ -73.867204336075957, 40.733395826101621 ], [ -73.868343710598552, 40.733070637257413 ], [ -73.868501011899042, 40.733018002359628 ], [ -73.868700006899175, 40.732953023346866 ], [ -73.868745345742667, 40.732941404286429 ], [ -73.868787815627286, 40.732932141385106 ], [ -73.868855407815218, 40.732909516505366 ], [ -73.869041126051641, 40.732847349967443 ], [ -73.869100172071782, 40.732866769283348 ], [ -73.869233866843658, 40.732910748341887 ], [ -73.86989456098452, 40.733128096490695 ], [ -73.870135337845213, 40.733199616704773 ], [ -73.870361976875444, 40.733266942383572 ], [ -73.870479750050052, 40.733293531727284 ], [ -73.870581008879256, 40.733326018261288 ], [ -73.871858060063218, 40.733692981067698 ], [ -73.87206114908534, 40.733751722436644 ], [ -73.872924418593755, 40.734003235526224 ], [ -73.873787705647231, 40.734254733436217 ], [ -73.87413160160699, 40.734376876577031 ], [ -73.874439398065832, 40.734495232766562 ], [ -73.874770219395742, 40.734628013761125 ], [ -73.874660227025075, 40.734711127192675 ], [ -73.874581069376291, 40.734770934964189 ], [ -73.874526324142607, 40.734817475709313 ], [ -73.874423876608859, 40.734904587450949 ], [ -73.874351108088277, 40.734966454566475 ], [ -73.872655657107842, 40.735742757384749 ], [ -73.872101144267106, 40.735993852946436 ], [ -73.870094175578927, 40.736521880143883 ], [ -73.868228430333104, 40.73684853605878 ], [ -73.867834356549182, 40.736913209937249 ], [ -73.866094637380726, 40.737251430150778 ], [ -73.865829560398979, 40.736643223514761 ] ] ] } },
{ "type": "Feature", "properties": { "GEOID": "36081047900" }, "geometry": { "type": "Polygon", "coordinates": [ [ [ -73.88178451767557, 40.737807026955529 ], [ -73.882134937596035, 40.737739839929645 ], [ -73.882302526111488, 40.737707701153532 ], [ -73.882458615067009, 40.737678413760797 ], [ -73.882872702234721, 40.7376113427283 ], [ -73.882272984493909, 40.737509333931662 ], [ -73.88158378328329, 40.737377766131203 ], [ -73.880552001938781, 40.737175966732202 ], [ -73.880354256112611, 40.737131123501491 ], [ -73.880515368576852, 40.735752171924936 ], [ -73.880661890115832, 40.735707874191831 ], [ -73.88056928405355, 40.735644932595278 ], [ -73.880159130501383, 40.735327157334936 ], [ -73.879554354696793, 40.734853489019763 ], [ -73.879311576948609, 40.73466212029966 ], [ -73.87895373143968, 40.734380047009118 ], [ -73.878349210585739, 40.733905804972302 ], [ -73.877719640768774, 40.73341722584653 ], [ -73.877082763477702, 40.732909316762964 ], [ -73.878224559640387, 40.732102269767999 ], [ -73.878187401167224, 40.731973889442934 ], [ -73.877396734748473, 40.731686131551555 ], [ -73.877521958319974, 40.731593169217213 ], [ -73.878442150796076, 40.731921191394974 ], [ -73.879321444405448, 40.732207541337068 ], [ -73.880293919210999, 40.732561645806115 ], [ -73.881086916118804, 40.732935629715627 ], [ -73.88182222668334, 40.733200397127639 ], [ -73.882681218629415, 40.733511240301048 ], [ -73.883529103696134, 40.733848278704514 ], [ -73.883810870344533, 40.733559536172159 ], [ -73.88469091994952, 40.733886468125903 ], [ -73.88484227319195, 40.7339336169982 ], [ -73.884842438493436, 40.733933670939557 ], [ -73.884842604265813, 40.733933707291087 ], [ -73.885000072453678, 40.733970028458437 ], [ -73.885000178558286, 40.733970056038764 ], [ -73.885000285339771, 40.733970074238286 ], [ -73.885162106671842, 40.733994981921221 ], [ -73.885325936216006, 40.734008111909276 ], [ -73.885326031340327, 40.734008121385493 ], [ -73.885326125820072, 40.734008121479583 ], [ -73.885489751063858, 40.734009454643818 ], [ -73.885984676483332, 40.734041121762537 ], [ -73.886396519481451, 40.734067462913693 ], [ -73.886891977564375, 40.734099162340527 ], [ -73.887186767498974, 40.73415893970806 ], [ -73.887514266209635, 40.734225348320706 ], [ -73.88770199270428, 40.734291322758772 ], [ -73.888522859675476, 40.734531160016154 ], [ -73.888795312690149, 40.734917741788692 ], [ -73.889016416179871, 40.735231458320712 ], [ -73.889361777313354, 40.735838337208762 ], [ -73.88960827869856, 40.7359386645279 ], [ -73.890933558474757, 40.735938027892928 ], [ -73.891378590855709, 40.735918312997001 ], [ -73.891368555723105, 40.736061331177986 ], [ -73.890969724817566, 40.736134282486091 ], [ -73.889794424579563, 40.736349267653274 ], [ -73.889383431849552, 40.736422201996348 ], [ -73.888760787724834, 40.736536363794265 ], [ -73.887535400166797, 40.736762543006435 ], [ -73.887330258660128, 40.738450128443858 ], [ -73.887313607288789, 40.73858712421454 ], [ -73.887306666719297, 40.738644227546239 ], [ -73.88728714311786, 40.738715006651169 ], [ -73.887253008044979, 40.73883597461959 ], [ -73.886681262942815, 40.738732125659652 ], [ -73.8863720395195, 40.738675962445107 ], [ -73.88569052541061, 40.738551405164756 ], [ -73.884703340856561, 40.738366302393402 ], [ -73.883642276192603, 40.738173553709522 ], [ -73.883176921344216, 40.738073098231034 ], [ -73.882613423285818, 40.7379514618465 ], [ -73.88178451767557, 40.737807026955529 ] ] ] } },
{ "type": "Feature", "properties": { "GEOID": "36081048500" }, "geometry": { "type": "Polygon", "coordinates": [ [ [ -73.880277654109946, 40.741297461517718 ], [ -73.880112771849682, 40.741168238831413 ], [ -73.879991205028048, 40.741070261683014 ], [ -73.879319795925952, 40.740602080304889 ], [ -73.879107397566855, 40.740445078215657 ], [ -73.87863239386445, 40.740059963416961 ], [ -73.878486822932686, 40.739933909059189 ], [ -73.877918318087779, 40.739394957189468 ], [ -73.877430584185603, 40.738600515669219 ], [ -73.87797778371656, 40.738495791413989 ], [ -73.878234905852779, 40.7384445362501 ], [ -73.879270942898771, 40.738258366681698 ], [ -73.879356899754328, 40.738222255614843 ], [ -73.879451548923228, 40.738198113637708 ], [ -73.879550388320212, 40.738187437895768 ], [ -73.879648503695051, 40.738190440524626 ], [ -73.881289672625201, 40.737895147180424 ], [ -73.88178451767557, 40.737807026955529 ], [ -73.882613423285818, 40.7379514618465 ], [ -73.883176921344216, 40.738073098231034 ], [ -73.883642276192603, 40.738173553709522 ], [ -73.884703340856561, 40.738366302393402 ], [ -73.88569052541061, 40.738551405164756 ], [ -73.8863720395195, 40.738675962445107 ], [ -73.886681262942815, 40.738732125659652 ], [ -73.887253008044979, 40.73883597461959 ], [ -73.88761266758236, 40.738892121539166 ], [ -73.88769362457424, 40.738904763327668 ], [ -73.888068578063653, 40.738990549457142 ], [ -73.888283577658569, 40.739039746653347 ], [ -73.889668520473933, 40.739301508931632 ], [ -73.890254279073687, 40.739392254151895 ], [ -73.890515303086246, 40.739446884875512 ], [ -73.890985887799189, 40.739532878682688 ], [ -73.892207994972708, 40.739756202635057 ], [ -73.894201648216011, 40.740123044798167 ], [ -73.894690759408448, 40.740232139183014 ], [ -73.894147300298826, 40.740298297392819 ], [ -73.892350766955147, 40.740516679494363 ], [ -73.89104471223618, 40.740668838019957 ], [ -73.890886703167425, 40.740687245164352 ], [ -73.890837750322248, 40.740692940241424 ], [ -73.890276181082484, 40.740758272964953 ], [ -73.88839968145912, 40.740977626253844 ], [ -73.887511320575101, 40.741082526635843 ], [ -73.886668269325781, 40.7411781452657 ], [ -73.885725881905032, 40.741288705425021 ], [ -73.885590370820196, 40.740576557624223 ], [ -73.885512251285206, 40.740165018886003 ], [ -73.885407051881288, 40.7401964323562 ], [ -73.88461489934673, 40.740432934646357 ], [ -73.884169721996798, 40.740572373045715 ], [ -73.883334351115465, 40.740834026569331 ], [ -73.883253183164669, 40.740859456253588 ], [ -73.882829121730353, 40.740992282854478 ], [ -73.882942868152568, 40.741609543720344 ], [ -73.881863990688174, 40.741734567918293 ], [ -73.88100387984025, 40.741840662492784 ], [ -73.880277654109946, 40.741297461517718 ] ] ] } },
{ "type": "Feature", "properties": { "GEOID": "36081026501" }, "geometry": { "type": "Polygon", "coordinates": [ [ [ -73.892409066157356, 40.747135328888419 ], [ -73.891750487925307, 40.746811727636874 ], [ -73.891431286204025, 40.746844736954912 ], [ -73.891391455322562, 40.746641004832618 ], [ -73.89138108011889, 40.746587938460202 ], [ -73.891153646843108, 40.745424633186971 ], [ -73.891110262264007, 40.74520271861217 ], [ -73.891045360403155, 40.744860747342173 ], [ -73.890716475229851, 40.743127783975673 ], [ -73.890875341876438, 40.74310588930846 ], [ -73.891602123984399, 40.742985908045064 ], [ -73.891905898215583, 40.742926300350469 ], [ -73.89217865751209, 40.742872778039583 ], [ -73.893443138187408, 40.744957954639339 ], [ -73.894446887503463, 40.746535270813006 ], [ -73.894896898287072, 40.747281057263486 ], [ -73.895240450177269, 40.747850402076956 ], [ -73.895470850058686, 40.748205654850416 ], [ -73.895546492121682, 40.748322286403962 ], [ -73.895644698144764, 40.748473705578107 ], [ -73.895409339386731, 40.74837385870574 ], [ -73.895276006477644, 40.748317293937035 ], [ -73.893797087693216, 40.747691500351216 ], [ -73.892409066157356, 40.747135328888419 ] ] ] } },
{ "type": "Feature", "properties": { "GEOID": "36081048301" }, "geometry": { "type": "Polygon", "coordinates": [ [ [ -73.887511320575101, 40.741082526635843 ], [ -73.88839968145912, 40.740977626253844 ], [ -73.890276181082484, 40.740758272964953 ], [ -73.890837750322248, 40.740692940241424 ], [ -73.890886703167425, 40.740687245164352 ], [ -73.891270179532583, 40.741428248789795 ], [ -73.891689885529374, 40.742144844700952 ], [ -73.89217865751209, 40.742872778039583 ], [ -73.891905898215583, 40.742926300350469 ], [ -73.891602123984399, 40.742985908045064 ], [ -73.890875341876438, 40.74310588930846 ], [ -73.890716475229851, 40.743127783975673 ], [ -73.889838318078972, 40.743254449368258 ], [ -73.889791598308918, 40.743261186475308 ], [ -73.889744167570598, 40.743268291608381 ], [ -73.88886955118501, 40.743399319915547 ], [ -73.887986507953258, 40.743548192370206 ], [ -73.887511320575101, 40.741082526635843 ] ] ] } },
{ "type": "Feature", "properties": { "GEOID": "36081046300" }, "geometry": { "type": "Polygon", "coordinates": [ [ [ -73.868085742503638, 40.745600582551845 ], [ -73.867909638603592, 40.744933716588548 ], [ -73.86787595133373, 40.744815306631061 ], [ -73.867850975145885, 40.744716545946616 ], [ -73.867826910694248, 40.74462945686227 ], [ -73.867685049428857, 40.744071718274675 ], [ -73.86749135058345, 40.743302047457568 ], [ -73.867613790626564, 40.743317632358661 ], [ -73.869036637267826, 40.742895190812519 ], [ -73.870361554406657, 40.742501808122874 ], [ -73.870327839548651, 40.74236552390758 ], [ -73.871420281355654, 40.742412414253309 ], [ -73.872372942928621, 40.742454023331476 ], [ -73.873358544688628, 40.742495589219672 ], [ -73.873485207519764, 40.742500932469348 ], [ -73.873955871299017, 40.742864688091316 ], [ -73.874081934413795, 40.74296211596382 ], [ -73.874195207398927, 40.743055489993822 ], [ -73.874505154678658, 40.743310984305026 ], [ -73.874657779622382, 40.743268339964715 ], [ -73.874685095904582, 40.743349333875308 ], [ -73.874225512766444, 40.743954559884038 ], [ -73.873770621600826, 40.744547911368713 ], [ -73.873304584112304, 40.745151369862228 ], [ -73.872840195327854, 40.745755612103778 ], [ -73.8723845013496, 40.746347091864322 ], [ -73.8719442337582, 40.746904314893797 ], [ -73.871918988423928, 40.746787787988794 ], [ -73.871770913102338, 40.746104084489701 ], [ -73.871687521514801, 40.745735134210932 ], [ -73.871594773758062, 40.745324813834564 ], [ -73.871569095634158, 40.745200209225068 ], [ -73.871362656248138, 40.744271249449881 ], [ -73.870825817852946, 40.744557540616348 ], [ -73.870632330382023, 40.744677685816463 ], [ -73.870127164131176, 40.744991376066508 ], [ -73.869287998047739, 40.74524191204101 ], [ -73.868085742503638, 40.745600582551845 ] ] ] } },
{ "type": "Feature", "properties": { "GEOID": "36081047100" }, "geometry": { "type": "Polygon", "coordinates": [ [ [ -73.873485207519764, 40.742500932469348 ], [ -73.873729953380845, 40.742428656743932 ], [ -73.875019228025707, 40.741494344644842 ], [ -73.874795575897238, 40.741288092568048 ], [ -73.874361251597762, 40.740159886824507 ], [ -73.87410287335301, 40.739487914961778 ], [ -73.876477560584746, 40.738903662290646 ], [ -73.877430584185603, 40.738600515669219 ], [ -73.877918318087779, 40.739394957189468 ], [ -73.878486822932686, 40.739933909059189 ], [ -73.87863239386445, 40.740059963416961 ], [ -73.879107397566855, 40.740445078215657 ], [ -73.879319795925952, 40.740602080304889 ], [ -73.879991205028048, 40.741070261683014 ], [ -73.880112771849682, 40.741168238831413 ], [ -73.880277654109946, 40.741297461517718 ], [ -73.879175300476831, 40.741624852323902 ], [ -73.878860230020834, 40.741746269365528 ], [ -73.878479346898942, 40.742150583046524 ], [ -73.878385768780205, 40.742154843476754 ], [ -73.878293106945478, 40.742170791444529 ], [ -73.878205112220741, 40.742198029022681 ], [ -73.878125161776921, 40.742235252754298 ], [ -73.876759654574869, 40.742645575324268 ], [ -73.875670714534664, 40.742970460156087 ], [ -73.874657779622382, 40.743268339964715 ], [ -73.874505154678658, 40.743310984305026 ], [ -73.874195207398927, 40.743055489993822 ], [ -73.874081934413795, 40.74296211596382 ], [ -73.873955871299017, 40.742864688091316 ], [ -73.873485207519764, 40.742500932469348 ] ] ] } },
{ "type": "Feature", "properties": { "GEOID": "36081049900" }, "geometry": { "type": "Polygon", "coordinates": [ [ [ -73.877521958319974, 40.731593169217213 ], [ -73.876696384408149, 40.731282151331072 ], [ -73.875424228931891, 40.7308028742614 ], [ -73.875237175807982, 40.730723958141382 ], [ -73.875473965666387, 40.730659477100275 ], [ -73.875589431417964, 40.730628033340068 ], [ -73.875710755948347, 40.730594995070049 ], [ -73.87617867593255, 40.730453326778502 ], [ -73.876342620808359, 40.730398554016709 ], [ -73.876640058873619, 40.730299168002745 ], [ -73.87707490524997, 40.730139810684641 ], [ -73.877094064358332, 40.730132789819628 ], [ -73.877307855756399, 40.730047298402738 ], [ -73.877539837558544, 40.729954530983399 ], [ -73.877964656038898, 40.72977016213467 ], [ -73.878432675054881, 40.729588195439653 ], [ -73.878714418638211, 40.72947638515307 ], [ -73.879722684285895, 40.72908887550512 ], [ -73.880052744032525, 40.72899068625447 ], [ -73.880390107657405, 40.728905219092837 ], [ -73.880713486451555, 40.728837121712658 ], [ -73.88073347152347, 40.728832912698842 ], [ -73.880929707385647, 40.728799750990994 ], [ -73.881072454236573, 40.728775345121001 ], [ -73.881402882003769, 40.72873230553887 ], [ -73.881735121918652, 40.728702303969712 ], [ -73.882139681002755, 40.728680455470922 ], [ -73.882581804871151, 40.728644439771763 ], [ -73.883001978931162, 40.728610209866297 ], [ -73.883542253972763, 40.728566193096441 ], [ -73.884335322152538, 40.728504370793068 ], [ -73.884351681070385, 40.728502947331926 ], [ -73.884746687285244, 40.72846599111309 ], [ -73.884846335959182, 40.728456668100989 ], [ -73.885079740386658, 40.728432587119777 ], [ -73.885277169794463, 40.728407079859096 ], [ -73.885611978877051, 40.72834217769573 ], [ -73.885873506334207, 40.728285314730563 ], [ -73.886132539411662, 40.728222189477357 ], [ -73.886388819203603, 40.728152864916105 ], [ -73.88664208927068, 40.728077410523781 ], [ -73.886763156665992, 40.728037322220096 ], [ -73.886949276630219, 40.727978656303591 ], [ -73.887204826102064, 40.727868828938107 ], [ -73.887204300572179, 40.728010830136185 ], [ -73.887200517102002, 40.728092394705584 ], [ -73.887197652141523, 40.728183711571091 ], [ -73.887201141297183, 40.728612069663761 ], [ -73.88723573073726, 40.728932964661652 ], [ -73.887289025702799, 40.729252850336856 ], [ -73.887360921987025, 40.729570737818662 ], [ -73.887360933361336, 40.729570783397065 ], [ -73.88736094495755, 40.729570827970498 ], [ -73.887451181691603, 40.729885643792883 ], [ -73.887451229835591, 40.729885823931149 ], [ -73.887451287904426, 40.729885995200227 ], [ -73.887559621605121, 40.730197055740909 ], [ -73.888059752181718, 40.730087230701074 ], [ -73.888112235047245, 40.730590711345506 ], [ -73.888178340946851, 40.731194782485495 ], [ -73.888253492576496, 40.731897162439971 ], [ -73.888285259663391, 40.732260540332959 ], [ -73.888307479494188, 40.732514631471908 ], [ -73.888331560693672, 40.732760547594467 ], [ -73.888349262632133, 40.732941432220173 ], [ -73.888375101356061, 40.73320535947127 ], [ -73.888400655733932, 40.733447991618647 ], [ -73.888443491952955, 40.733854756108023 ], [ -73.888479089288367, 40.734158154151331 ], [ -73.888522859675476, 40.734531160016154 ], [ -73.88770199270428, 40.734291322758772 ], [ -73.887514266209635, 40.734225348320706 ], [ -73.887186767498974, 40.73415893970806 ], [ -73.886891977564375, 40.734099162340527 ], [ -73.886396519481451, 40.734067462913693 ], [ -73.885984676483332, 40.734041121762537 ], [ -73.885489751063858, 40.734009454643818 ], [ -73.885326125820072, 40.734008121479583 ], [ -73.885326031340327, 40.734008121385493 ], [ -73.885325936216006, 40.734008111909276 ], [ -73.885162106671842, 40.733994981921221 ], [ -73.885000285339771, 40.733970074238286 ], [ -73.885000178558286, 40.733970056038764 ], [ -73.885000072453678, 40.733970028458437 ], [ -73.884842604265813, 40.733933707291087 ], [ -73.884842438493436, 40.733933670939557 ], [ -73.88484227319195, 40.7339336169982 ], [ -73.88469091994952, 40.733886468125903 ], [ -73.883810870344533, 40.733559536172159 ], [ -73.883529103696134, 40.733848278704514 ], [ -73.882681218629415, 40.733511240301048 ], [ -73.88182222668334, 40.733200397127639 ], [ -73.881086916118804, 40.732935629715627 ], [ -73.880293919210999, 40.732561645806115 ], [ -73.879321444405448, 40.732207541337068 ], [ -73.878442150796076, 40.731921191394974 ], [ -73.877521958319974, 40.731593169217213 ] ] ] } },
{ "type": "Feature", "properties": { "GEOID": "36081046500" }, "geometry": { "type": "Polygon", "coordinates": [ [ [ -73.868085742503638, 40.745600582551845 ], [ -73.869287998047739, 40.74524191204101 ], [ -73.870127164131176, 40.744991376066508 ], [ -73.870632330382023, 40.744677685816463 ], [ -73.870825817852946, 40.744557540616348 ], [ -73.871362656248138, 40.744271249449881 ], [ -73.871569095634158, 40.745200209225068 ], [ -73.871594773758062, 40.745324813834564 ], [ -73.871687521514801, 40.745735134210932 ], [ -73.871770913102338, 40.746104084489701 ], [ -73.871918988423928, 40.746787787988794 ], [ -73.8719442337582, 40.746904314893797 ], [ -73.871964374745389, 40.746984384057853 ], [ -73.872068446414147, 40.747480651428432 ], [ -73.872155304417603, 40.747872098943191 ], [ -73.872220389347802, 40.748157236648055 ], [ -73.872372563536672, 40.748851551331406 ], [ -73.871840958981167, 40.748905576649356 ], [ -73.871356485448274, 40.748956950801251 ], [ -73.870378812784281, 40.74906407805932 ], [ -73.869739138404356, 40.749126269924702 ], [ -73.869424586031556, 40.749156851520205 ], [ -73.869191880721743, 40.74876289410804 ], [ -73.868913958013025, 40.748368877041948 ], [ -73.868529252368063, 40.747588302245212 ], [ -73.868437510288786, 40.747031197316005 ], [ -73.868265026075846, 40.746314223003345 ], [ -73.868085742503638, 40.745600582551845 ] ] ] } },
{ "type": "Feature", "properties": { "GEOID": "36081047500" }, "geometry": { "type": "Polygon", "coordinates": [ [ [ -73.874770219395742, 40.734628013761125 ], [ -73.874439398065832, 40.734495232766562 ], [ -73.87413160160699, 40.734376876577031 ], [ -73.873787705647231, 40.734254733436217 ], [ -73.872924418593755, 40.734003235526224 ], [ -73.87206114908534, 40.733751722436644 ], [ -73.871858060063218, 40.733692981067698 ], [ -73.870581008879256, 40.733326018261288 ], [ -73.870479750050052, 40.733293531727284 ], [ -73.870361976875444, 40.733266942383572 ], [ -73.870135337845213, 40.733199616704773 ], [ -73.86989456098452, 40.733128096490695 ], [ -73.869233866843658, 40.732910748341887 ], [ -73.869100172071782, 40.732866769283348 ], [ -73.869041126051641, 40.732847349967443 ], [ -73.869310724952058, 40.732757109413157 ], [ -73.869728290014237, 40.732598052407511 ], [ -73.870632559784411, 40.732296154920427 ], [ -73.870933041175363, 40.732193951181955 ], [ -73.871109769538123, 40.73213270720133 ], [ -73.871218247740018, 40.732098287410302 ], [ -73.871327230142228, 40.732061475799071 ], [ -73.871544731903739, 40.73198247581842 ], [ -73.872071010565577, 40.731803049549953 ], [ -73.873166348442581, 40.731426317426575 ], [ -73.874044819917344, 40.731170074209786 ], [ -73.874837036002205, 40.730837003159536 ], [ -73.875237175807982, 40.730723958141382 ], [ -73.875424228931891, 40.7308028742614 ], [ -73.876696384408149, 40.731282151331072 ], [ -73.877521958319974, 40.731593169217213 ], [ -73.877396734748473, 40.731686131551555 ], [ -73.878187401167224, 40.731973889442934 ], [ -73.878224559640387, 40.732102269767999 ], [ -73.877082763477702, 40.732909316762964 ], [ -73.877719640768774, 40.73341722584653 ], [ -73.878349210585739, 40.733905804972302 ], [ -73.87895373143968, 40.734380047009118 ], [ -73.879311576948609, 40.73466212029966 ], [ -73.879554354696793, 40.734853489019763 ], [ -73.880159130501383, 40.735327157334936 ], [ -73.88056928405355, 40.735644932595278 ], [ -73.880661890115832, 40.735707874191831 ], [ -73.880515368576852, 40.735752171924936 ], [ -73.880354256112611, 40.737131123501491 ], [ -73.879801350028288, 40.737026115866854 ], [ -73.879426592384533, 40.736954944635045 ], [ -73.878431976627567, 40.736764656775755 ], [ -73.878228449730202, 40.736715924373591 ], [ -73.878029785835949, 40.736656128783039 ], [ -73.877837522350461, 40.736585731687761 ], [ -73.877284783945612, 40.736246232031142 ], [ -73.877051650688358, 40.736103039792113 ], [ -73.876935208364515, 40.736034818031499 ], [ -73.876191361447241, 40.735501990392926 ], [ -73.875770005981295, 40.735183944178281 ], [ -73.875533230226409, 40.73503599703502 ], [ -73.875118378915701, 40.734814175701118 ], [ -73.874770219395742, 40.734628013761125 ] ] ] } }
]
}
